; HEADER_BLOCK_START
; generated by OrcaSlicer 2.4.2 on 2026-08-28 at 23:47:32
; total layer number: 2
; filament_density: 1.25,1.25
; filament_diameter: 1.75,1.75
; max_z_height: 0.40
; filament: 1
; HEADER_BLOCK_END

; external perimeters extrusion width = 0.42mm
; perimeters extrusion width = 0.45mm
; infill extrusion width = 0.45mm
; solid infill extrusion width = 0.42mm
; top infill extrusion width = 0.42mm
; first layer extrusion width = 0.50mm

; EXECUTABLE_BLOCK_START
EXCLUDE_OBJECT_DEFINE NAME=Cube_id_0_copy_0 CENTER=150,150 POLYGON=[[120,120],[180,120],[180,180],[120,180],[120,120]]
M73 P0 R8
M106 S0
M106 P2 S0
;TYPE:Custom
KCTRL_CYCLE_JOB_ASSERT_V1
G90
G21
M83 ; use relative distances for extrusion
SET_PRESSURE_ADVANCE ADVANCE=0.03; Override pressure advance value
; MANUAL_TOOL_CHANGE T0
M106 S0
M106 P2 S0
;LAYER_CHANGE
;Z:0.2
;HEIGHT:0.2
;BEFORE_LAYER_CHANGE
;0.2
G92 E0

;AFTER_LAYER_CHANGE
;0.2
;_SET_FAN_SPEED_CHANGING_LAYER
SET_VELOCITY_LIMIT ACCEL=5000 ACCEL_TO_DECEL=5000
SET_VELOCITY_LIMIT SQUARE_CORNER_VELOCITY=5
; printing object Cube id:0 copy 0
SET_VELOCITY_LIMIT ACCEL=10450 ACCEL_TO_DECEL=10450 SQUARE_CORNER_VELOCITY=20
G1 E-.8 F2700
EXCLUDE_OBJECT_START NAME=Cube_id_0_copy_0
G1 X178.039 Y178.686 F33600
G1 Z.5
M73 P25 R6
G1 Z.2
G1 E.8 F2700
SET_VELOCITY_LIMIT ACCEL=5000 ACCEL_TO_DECEL=5000 SQUARE_CORNER_VELOCITY=5
;TYPE:Inner wall
;WIDTH:0.5
G1 F3900
G1 X121.314 Y178.686 E2.13815
G1 X121.314 Y121.314 E2.16252
M73 P26 R5
G1 X178.686 Y121.314 E2.16252
G1 X178.686 Y178.686 E2.16252
G1 X178.179 Y178.686 E.01909
SET_VELOCITY_LIMIT ACCEL=10450 ACCEL_TO_DECEL=10450 SQUARE_CORNER_VELOCITY=20
G1 X178.643 Y179.143 F33600
SET_VELOCITY_LIMIT ACCEL=5000 ACCEL_TO_DECEL=5000 SQUARE_CORNER_VELOCITY=5
G1 F3900
G1 X120.857 Y179.143 E2.17813
G1 X120.857 Y120.857 E2.19698
G1 X179.143 Y120.857 E2.19698
G1 X179.143 Y179.143 E2.19698
M73 P27 R5
G1 X178.783 Y179.143 E.01357
SET_VELOCITY_LIMIT ACCEL=10450 ACCEL_TO_DECEL=10450 SQUARE_CORNER_VELOCITY=20
G1 X179.6 Y179.6 F33600
SET_VELOCITY_LIMIT ACCEL=5000 ACCEL_TO_DECEL=5000 SQUARE_CORNER_VELOCITY=5
;TYPE:Outer wall
G1 F3900
G1 X120.4 Y179.6 E2.23143
G1 X120.4 Y120.4 E2.23143
G1 X179.6 Y120.4 E2.23143
G1 X179.6 Y179.46 E2.22616
SET_VELOCITY_LIMIT ACCEL=10450 ACCEL_TO_DECEL=10450 SQUARE_CORNER_VELOCITY=20
G1 E-.75408 F2700
M73 P28 R5
;WIPE_START
G1 F23520
G1 X179.2 Y179.461 E-.04592
;WIPE_END
G1 X179.135 Y173.737 Z.5 F33600
G1 X178.553 Y122.375 Z.5
G1 Z.2
G1 E.8 F2700
SET_VELOCITY_LIMIT ACCEL=5000 ACCEL_TO_DECEL=5000 SQUARE_CORNER_VELOCITY=5
;TYPE:Bottom surface
;WIDTH:0.502156
G1 F5400
G1 X177.83 Y121.652 E.03871
G1 X177.181 Y121.652 E.0246
G1 X178.348 Y122.819 E.06248
G1 X178.348 Y123.468 E.0246
G1 X176.532 Y121.652 E.09727
G1 X175.882 Y121.652 E.0246
G1 X178.348 Y124.118 E.13205
G1 X178.348 Y124.767 E.0246
G1 X175.233 Y121.652 E.16683
G1 X174.583 Y121.652 E.0246
G1 X178.348 Y125.417 E.20162
G1 X178.348 Y126.066 E.0246
G1 X173.934 Y121.652 E.2364
G1 X173.284 Y121.652 E.0246
G1 X178.348 Y126.716 E.27118
G1 X178.348 Y127.365 E.0246
G1 X172.635 Y121.652 E.30597
G1 X171.985 Y121.652 E.0246
G1 X178.348 Y128.015 E.34075
G1 X178.348 Y128.664 E.0246
G1 X171.336 Y121.652 E.37553
G1 X170.686 Y121.652 E.0246
G1 X178.348 Y129.314 E.41032
G1 X178.348 Y129.963 E.0246
G1 X170.037 Y121.652 E.4451
G1 X169.387 Y121.652 E.0246
G1 X178.348 Y130.613 E.47988
G1 X178.348 Y131.262 E.0246
G1 X168.738 Y121.652 E.51467
G1 X168.089 Y121.652 E.0246
G1 X178.348 Y131.911 E.54945
G1 X178.348 Y132.561 E.0246
G1 X167.439 Y121.652 E.58423
G1 X166.79 Y121.652 E.0246
G1 X178.348 Y133.21 E.61902
G1 X178.348 Y133.86 E.0246
G1 X166.14 Y121.652 E.6538
G1 X165.491 Y121.652 E.0246
G1 X178.348 Y134.509 E.68858
G1 X178.348 Y135.159 E.0246
G1 X164.841 Y121.652 E.72337
G1 X164.192 Y121.652 E.0246
G1 X178.348 Y135.808 E.75815
G1 X178.348 Y136.458 E.0246
G1 X163.542 Y121.652 E.79293
G1 X162.893 Y121.652 E.0246
G1 X178.348 Y137.107 E.82772
G1 X178.348 Y137.757 E.0246
G1 X162.243 Y121.652 E.8625
G1 X161.594 Y121.652 E.0246
M73 P29 R5
G1 X178.348 Y138.406 E.89728
G1 X178.348 Y139.055 E.0246
G1 X160.945 Y121.652 E.93207
G1 X160.295 Y121.652 E.0246
G1 X178.348 Y139.705 E.96685
G1 X178.348 Y140.354 E.0246
G1 X159.646 Y121.652 E1.00164
G1 X158.996 Y121.652 E.0246
G1 X178.348 Y141.004 E1.03642
G1 X178.348 Y141.653 E.0246
G1 X158.347 Y121.652 E1.0712
G1 X157.697 Y121.652 E.0246
G1 X178.348 Y142.303 E1.10599
G1 X178.348 Y142.952 E.0246
G1 X157.048 Y121.652 E1.14077
G1 X156.398 Y121.652 E.0246
G1 X178.348 Y143.602 E1.17555
G1 X178.348 Y144.251 E.0246
G1 X155.749 Y121.652 E1.21034
G1 X155.099 Y121.652 E.0246
G1 X178.348 Y144.901 E1.24512
G1 X178.348 Y145.55 E.0246
G1 X154.45 Y121.652 E1.2799
G1 X153.8 Y121.652 E.0246
G1 X178.348 Y146.2 E1.31469
G1 X178.348 Y146.849 E.0246
M73 P30 R5
G1 X153.151 Y121.652 E1.34947
G1 X152.502 Y121.652 E.0246
G1 X178.348 Y147.498 E1.38425
G1 X178.348 Y148.148 E.0246
G1 X151.852 Y121.652 E1.41904
G1 X151.203 Y121.652 E.0246
G1 X178.348 Y148.797 E1.45382
G1 X178.348 Y149.447 E.0246
G1 X150.553 Y121.652 E1.4886
G1 X149.904 Y121.652 E.0246
G1 X178.348 Y150.096 E1.52339
G1 X178.348 Y150.746 E.0246
G1 X149.254 Y121.652 E1.55817
G1 X148.605 Y121.652 E.0246
G1 X178.348 Y151.395 E1.59295
G1 X178.348 Y152.045 E.0246
G1 X147.955 Y121.652 E1.62774
G1 X147.306 Y121.652 E.0246
G1 X178.348 Y152.694 E1.66252
G1 X178.348 Y153.344 E.0246
G1 X146.656 Y121.652 E1.6973
G1 X146.007 Y121.652 E.0246
M73 P31 R5
G1 X178.348 Y153.993 E1.73209
G1 X178.348 Y154.642 E.0246
G1 X145.358 Y121.652 E1.76687
G1 X144.708 Y121.652 E.0246
G1 X178.348 Y155.292 E1.80165
G1 X178.348 Y155.941 E.0246
G1 X144.059 Y121.652 E1.83644
G1 X143.409 Y121.652 E.0246
G1 X178.348 Y156.591 E1.87122
G1 X178.348 Y157.24 E.0246
G1 X142.76 Y121.652 E1.906
G1 X142.11 Y121.652 E.0246
G1 X178.348 Y157.89 E1.94079
G1 X178.348 Y158.539 E.0246
G1 X141.461 Y121.652 E1.97557
G1 X140.811 Y121.652 E.0246
M73 P32 R5
G1 X178.348 Y159.189 E2.01035
G1 X178.348 Y159.838 E.0246
G1 X140.162 Y121.652 E2.04514
G1 X139.512 Y121.652 E.0246
G1 X178.348 Y160.488 E2.07992
G1 X178.348 Y161.137 E.0246
G1 X138.863 Y121.652 E2.11471
G1 X138.214 Y121.652 E.0246
G1 X178.348 Y161.787 E2.14949
G1 X178.348 Y162.436 E.0246
G1 X137.564 Y121.652 E2.18427
G1 X136.915 Y121.652 E.0246
G1 X178.348 Y163.085 E2.21906
G1 X178.348 Y163.735 E.0246
M73 P33 R5
G1 X136.265 Y121.652 E2.25384
G1 X135.616 Y121.652 E.0246
G1 X178.348 Y164.384 E2.28862
G1 X178.348 Y165.034 E.0246
G1 X134.966 Y121.652 E2.32341
G1 X134.317 Y121.652 E.0246
G1 X178.348 Y165.683 E2.35819
G1 X178.348 Y166.333 E.0246
G1 X133.667 Y121.652 E2.39297
G1 X133.018 Y121.652 E.0246
G1 X178.348 Y166.982 E2.42776
G1 X178.348 Y167.632 E.0246
G1 X132.368 Y121.652 E2.46254
G1 X131.719 Y121.652 E.0246
M73 P34 R5
G1 X178.348 Y168.281 E2.49732
G1 X178.348 Y168.931 E.0246
G1 X131.069 Y121.652 E2.53211
G1 X130.42 Y121.652 E.0246
G1 X178.348 Y169.58 E2.56689
G1 X178.348 Y170.229 E.0246
G1 X129.771 Y121.652 E2.60167
G1 X129.121 Y121.652 E.0246
G1 X178.348 Y170.879 E2.63646
G1 X178.348 Y171.528 E.0246
G1 X128.472 Y121.652 E2.67124
G1 X127.822 Y121.652 E.0246
M73 P35 R5
G1 X178.348 Y172.178 E2.70602
G1 X178.348 Y172.827 E.0246
G1 X127.173 Y121.652 E2.74081
G1 X126.523 Y121.652 E.0246
G1 X178.348 Y173.477 E2.77559
G1 X178.348 Y174.126 E.0246
G1 X125.874 Y121.652 E2.81037
G1 X125.224 Y121.652 E.0246
G1 X178.348 Y174.776 E2.84516
G1 X178.348 Y175.425 E.0246
G1 X124.575 Y121.652 E2.87994
G1 X123.925 Y121.652 E.0246
M73 P36 R5
G1 X178.348 Y176.075 E2.91472
G1 X178.348 Y176.724 E.0246
G1 X123.276 Y121.652 E2.94951
G1 X122.627 Y121.652 E.0246
G1 X178.348 Y177.373 E2.98429
G1 X178.348 Y178.023 E.0246
G1 X121.977 Y121.652 E3.01907
G1 X121.652 Y121.652 E.0123
G1 X121.652 Y121.977 E.0123
G1 X178.023 Y178.348 E3.01907
G1 X177.373 Y178.348 E.0246
M73 P37 R5
G1 X121.652 Y122.627 E2.98428
G1 X121.652 Y123.276 E.0246
G1 X176.724 Y178.348 E2.9495
G1 X176.074 Y178.348 E.0246
G1 X121.652 Y123.926 E2.91472
G1 X121.652 Y124.575 E.0246
G1 X175.425 Y178.348 E2.87993
G1 X174.776 Y178.348 E.0246
G1 X121.652 Y125.224 E2.84515
G1 X121.652 Y125.874 E.0246
G1 X174.126 Y178.348 E2.81037
G1 X173.477 Y178.348 E.0246
M73 P38 R5
G1 X121.652 Y126.523 E2.77558
G1 X121.652 Y127.173 E.0246
G1 X172.827 Y178.348 E2.7408
M73 P38 R4
G1 X172.178 Y178.348 E.0246
G1 X121.652 Y127.822 E2.70602
G1 X121.652 Y128.472 E.0246
G1 X171.528 Y178.348 E2.67123
G1 X170.879 Y178.348 E.0246
G1 X121.652 Y129.121 E2.63645
G1 X121.652 Y129.771 E.0246
G1 X170.229 Y178.348 E2.60167
G1 X169.58 Y178.348 E.0246
M73 P39 R4
G1 X121.652 Y130.42 E2.56688
G1 X121.652 Y131.07 E.0246
G1 X168.93 Y178.348 E2.5321
G1 X168.281 Y178.348 E.0246
G1 X121.652 Y131.719 E2.49732
G1 X121.652 Y132.369 E.0246
G1 X167.631 Y178.348 E2.46253
G1 X166.982 Y178.348 E.0246
G1 X121.652 Y133.018 E2.42775
G1 X121.652 Y133.667 E.0246
G1 X166.333 Y178.348 E2.39296
G1 X165.683 Y178.348 E.0246
M73 P40 R4
G1 X121.652 Y134.317 E2.35818
G1 X121.652 Y134.966 E.0246
G1 X165.034 Y178.348 E2.3234
G1 X164.384 Y178.348 E.0246
G1 X121.652 Y135.616 E2.28861
G1 X121.652 Y136.265 E.0246
G1 X163.735 Y178.348 E2.25383
G1 X163.085 Y178.348 E.0246
G1 X121.652 Y136.915 E2.21905
G1 X121.652 Y137.564 E.0246
G1 X162.436 Y178.348 E2.18426
G1 X161.786 Y178.348 E.0246
G1 X121.652 Y138.214 E2.14948
G1 X121.652 Y138.863 E.0246
M73 P41 R4
G1 X161.137 Y178.348 E2.1147
G1 X160.487 Y178.348 E.0246
G1 X121.652 Y139.513 E2.07991
G1 X121.652 Y140.162 E.0246
G1 X159.838 Y178.348 E2.04513
G1 X159.189 Y178.348 E.0246
G1 X121.652 Y140.811 E2.01035
G1 X121.652 Y141.461 E.0246
G1 X158.539 Y178.348 E1.97556
G1 X157.89 Y178.348 E.0246
G1 X121.652 Y142.11 E1.94078
G1 X121.652 Y142.76 E.0246
G1 X157.24 Y178.348 E1.906
G1 X156.591 Y178.348 E.0246
M73 P42 R4
G1 X121.652 Y143.409 E1.87121
G1 X121.652 Y144.059 E.0246
G1 X155.941 Y178.348 E1.83643
G1 X155.292 Y178.348 E.0246
G1 X121.652 Y144.708 E1.80165
G1 X121.652 Y145.358 E.0246
G1 X154.642 Y178.348 E1.76686
G1 X153.993 Y178.348 E.0246
G1 X121.652 Y146.007 E1.73208
G1 X121.652 Y146.657 E.0246
G1 X153.343 Y178.348 E1.6973
G1 X152.694 Y178.348 E.0246
G1 X121.652 Y147.306 E1.66251
G1 X121.652 Y147.956 E.0246
G1 X152.044 Y178.348 E1.62773
G1 X151.395 Y178.348 E.0246
G1 X121.652 Y148.605 E1.59295
G1 X121.652 Y149.254 E.0246
M73 P43 R4
G1 X150.746 Y178.348 E1.55816
G1 X150.096 Y178.348 E.0246
G1 X121.652 Y149.904 E1.52338
G1 X121.652 Y150.553 E.0246
G1 X149.447 Y178.348 E1.4886
G1 X148.797 Y178.348 E.0246
G1 X121.652 Y151.203 E1.45381
G1 X121.652 Y151.852 E.0246
G1 X148.148 Y178.348 E1.41903
G1 X147.498 Y178.348 E.0246
G1 X121.652 Y152.502 E1.38425
G1 X121.652 Y153.151 E.0246
G1 X146.849 Y178.348 E1.34946
G1 X146.199 Y178.348 E.0246
G1 X121.652 Y153.801 E1.31468
G1 X121.652 Y154.45 E.0246
G1 X145.55 Y178.348 E1.27989
G1 X144.9 Y178.348 E.0246
G1 X121.652 Y155.1 E1.24511
G1 X121.652 Y155.749 E.0246
G1 X144.251 Y178.348 E1.21033
G1 X143.602 Y178.348 E.0246
M73 P44 R4
G1 X121.652 Y156.398 E1.17554
G1 X121.652 Y157.048 E.0246
G1 X142.952 Y178.348 E1.14076
G1 X142.303 Y178.348 E.0246
G1 X121.652 Y157.697 E1.10598
G1 X121.652 Y158.347 E.0246
G1 X141.653 Y178.348 E1.07119
G1 X141.004 Y178.348 E.0246
G1 X121.652 Y158.996 E1.03641
G1 X121.652 Y159.646 E.0246
G1 X140.354 Y178.348 E1.00163
G1 X139.705 Y178.348 E.0246
G1 X121.652 Y160.295 E.96684
G1 X121.652 Y160.945 E.0246
G1 X139.055 Y178.348 E.93206
G1 X138.406 Y178.348 E.0246
G1 X121.652 Y161.594 E.89728
G1 X121.652 Y162.244 E.0246
G1 X137.756 Y178.348 E.86249
G1 X137.107 Y178.348 E.0246
G1 X121.652 Y162.893 E.82771
G1 X121.652 Y163.542 E.0246
G1 X136.458 Y178.348 E.79293
G1 X135.808 Y178.348 E.0246
G1 X121.652 Y164.192 E.75814
G1 X121.652 Y164.841 E.0246
G1 X135.159 Y178.348 E.72336
G1 X134.509 Y178.348 E.0246
G1 X121.652 Y165.491 E.68858
G1 X121.652 Y166.14 E.0246
G1 X133.86 Y178.348 E.65379
G1 X133.21 Y178.348 E.0246
M73 P45 R4
G1 X121.652 Y166.79 E.61901
G1 X121.652 Y167.439 E.0246
G1 X132.561 Y178.348 E.58423
G1 X131.911 Y178.348 E.0246
G1 X121.652 Y168.089 E.54944
G1 X121.652 Y168.738 E.0246
G1 X131.262 Y178.348 E.51466
G1 X130.612 Y178.348 E.0246
G1 X121.652 Y169.388 E.47988
G1 X121.652 Y170.037 E.0246
G1 X129.963 Y178.348 E.44509
G1 X129.313 Y178.348 E.0246
G1 X121.652 Y170.687 E.41031
G1 X121.652 Y171.336 E.0246
G1 X128.664 Y178.348 E.37553
G1 X128.015 Y178.348 E.0246
G1 X121.652 Y171.985 E.34074
G1 X121.652 Y172.635 E.0246
G1 X127.365 Y178.348 E.30596
G1 X126.716 Y178.348 E.0246
G1 X121.652 Y173.284 E.27118
G1 X121.652 Y173.934 E.0246
G1 X126.066 Y178.348 E.23639
G1 X125.417 Y178.348 E.0246
G1 X121.652 Y174.583 E.20161
G1 X121.652 Y175.233 E.0246
G1 X124.767 Y178.348 E.16683
G1 X124.118 Y178.348 E.0246
G1 X121.652 Y175.882 E.13204
G1 X121.652 Y176.532 E.0246
G1 X123.468 Y178.348 E.09726
G1 X122.819 Y178.348 E.0246
G1 X121.652 Y177.181 E.06247
G1 X121.652 Y177.831 E.0246
G1 X122.375 Y178.553 E.03871
; stop printing object Cube id:0 copy 0
M106 S71
M106 P2 S191
;LAYER_CHANGE
;Z:0.4
;HEIGHT:0.2
;BEFORE_LAYER_CHANGE
;0.4
G92 E0

EXCLUDE_OBJECT_END NAME=Cube_id_0_copy_0
;AFTER_LAYER_CHANGE
;0.4
;_SET_FAN_SPEED_CHANGING_LAYER
SET_VELOCITY_LIMIT ACCEL=10000 ACCEL_TO_DECEL=10000
SET_VELOCITY_LIMIT SQUARE_CORNER_VELOCITY=8.5
M104 S195 ; set nozzle temperature
M140 S55 ; set bed temperature
; printing object Cube id:0 copy 0
SET_VELOCITY_LIMIT ACCEL=11000 ACCEL_TO_DECEL=11000 SQUARE_CORNER_VELOCITY=20
G1 E-.75408 F2700
;WIPE_START
G1 F23520
G1 X122.092 Y178.27 E-.04592
;WIPE_END
EXCLUDE_OBJECT_START NAME=Cube_id_0_copy_0
G1 X127.816 Y178.344 Z.7 F33600
G1 X178.426 Y178.991 Z.7
G1 Z.4
G1 E.8 F2700
SET_VELOCITY_LIMIT ACCEL=6000 ACCEL_TO_DECEL=6000 SQUARE_CORNER_VELOCITY=8
;TYPE:Inner wall
;WIDTH:0.45
G1 F7600
G1 X121.009 Y178.991 E1.90461
G1 X121.009 Y121.009 E1.92336
G1 X178.991 Y121.009 E1.92336
G1 X178.991 Y178.991 E1.92336
G1 X178.566 Y178.991 E.0141
SET_VELOCITY_LIMIT ACCEL=11000 ACCEL_TO_DECEL=11000 SQUARE_CORNER_VELOCITY=20
G1 X178.948 Y179.398 F33600
SET_VELOCITY_LIMIT ACCEL=6000 ACCEL_TO_DECEL=6000 SQUARE_CORNER_VELOCITY=8
G1 F7600
G1 X120.602 Y179.398 E1.93544
G1 X120.602 Y120.602 E1.95037
M73 P46 R4
G1 X179.398 Y120.602 E1.95037
G1 X179.398 Y179.398 E1.95037
G1 X179.088 Y179.398 E.01028
SET_VELOCITY_LIMIT ACCEL=1500 ACCEL_TO_DECEL=1500 SQUARE_CORNER_VELOCITY=3
G1 X179.088 Y179.389 F33600
G1 X179.389 Y179.389
G1 X179.79 Y179.79
;TYPE:Outer wall
;WIDTH:0.42
G1 F5900
G1 X120.21 Y179.79 E1.83073
G1 X120.21 Y120.21 E1.83073
G1 X179.79 Y120.21 E1.83073
G1 F5880
G1 X179.79 Y179.65 E1.82643
SET_VELOCITY_LIMIT ACCEL=11000 ACCEL_TO_DECEL=11000 SQUARE_CORNER_VELOCITY=20
G1 E-.75408 F2700
;WIPE_START
G1 F23520
G1 X179.39 Y179.651 E-.04592
;WIPE_END
G1 X178.304 Y178.87 Z.7 F33600
G1 Z.4
G1 E.8 F2700
SET_VELOCITY_LIMIT ACCEL=2000 ACCEL_TO_DECEL=2000
;TYPE:Top surface
G1 F7600
G1 X178.87 Y178.304 E.02462
SET_VELOCITY_LIMIT ACCEL=11000 ACCEL_TO_DECEL=11000
G1 X178.87 Y177.77 F33600
SET_VELOCITY_LIMIT ACCEL=2000 ACCEL_TO_DECEL=2000
G1 F7600
G1 X177.77 Y178.87 E.04784
SET_VELOCITY_LIMIT ACCEL=11000 ACCEL_TO_DECEL=11000
G1 X177.235 Y178.87 F33600
SET_VELOCITY_LIMIT ACCEL=2000 ACCEL_TO_DECEL=2000
G1 F7600
G1 X178.87 Y177.235 E.07106
SET_VELOCITY_LIMIT ACCEL=11000 ACCEL_TO_DECEL=11000
G1 X178.87 Y176.701 F33600
SET_VELOCITY_LIMIT ACCEL=2000 ACCEL_TO_DECEL=2000
G1 F7600
G1 X176.701 Y178.87 E.09427
SET_VELOCITY_LIMIT ACCEL=11000 ACCEL_TO_DECEL=11000
G1 X176.167 Y178.87 F33600
SET_VELOCITY_LIMIT ACCEL=2000 ACCEL_TO_DECEL=2000
G1 F7600
G1 X178.87 Y176.167 E.11749
SET_VELOCITY_LIMIT ACCEL=11000 ACCEL_TO_DECEL=11000
G1 X178.87 Y175.632 F33600
M73 P47 R4
SET_VELOCITY_LIMIT ACCEL=2000 ACCEL_TO_DECEL=2000
G1 F7600
G1 X175.632 Y178.87 E.14071
SET_VELOCITY_LIMIT ACCEL=11000 ACCEL_TO_DECEL=11000
G1 X175.098 Y178.87 F33600
SET_VELOCITY_LIMIT ACCEL=2000 ACCEL_TO_DECEL=2000
G1 F7600
G1 X178.87 Y175.098 E.16393
SET_VELOCITY_LIMIT ACCEL=11000 ACCEL_TO_DECEL=11000
G1 X178.87 Y174.564 F33600
SET_VELOCITY_LIMIT ACCEL=2000 ACCEL_TO_DECEL=2000
G1 F7600
G1 X174.564 Y178.87 E.18715
SET_VELOCITY_LIMIT ACCEL=11000 ACCEL_TO_DECEL=11000
G1 X174.029 Y178.87 F33600
SET_VELOCITY_LIMIT ACCEL=2000 ACCEL_TO_DECEL=2000
G1 F7600
G1 X178.87 Y174.029 E.21037
SET_VELOCITY_LIMIT ACCEL=11000 ACCEL_TO_DECEL=11000
G1 X178.87 Y173.495 F33600
SET_VELOCITY_LIMIT ACCEL=2000 ACCEL_TO_DECEL=2000
G1 F7600
G1 X173.495 Y178.87 E.23359
SET_VELOCITY_LIMIT ACCEL=11000 ACCEL_TO_DECEL=11000
G1 X172.961 Y178.87 F33600
SET_VELOCITY_LIMIT ACCEL=2000 ACCEL_TO_DECEL=2000
G1 F7600
G1 X178.87 Y172.961 E.25681
SET_VELOCITY_LIMIT ACCEL=11000 ACCEL_TO_DECEL=11000
G1 X178.87 Y172.426 F33600
SET_VELOCITY_LIMIT ACCEL=2000 ACCEL_TO_DECEL=2000
G1 F7600
G1 X172.426 Y178.87 E.28003
SET_VELOCITY_LIMIT ACCEL=11000 ACCEL_TO_DECEL=11000
G1 X171.892 Y178.87 F33600
SET_VELOCITY_LIMIT ACCEL=2000 ACCEL_TO_DECEL=2000
G1 F7600
G1 X178.87 Y171.892 E.30325
SET_VELOCITY_LIMIT ACCEL=11000 ACCEL_TO_DECEL=11000
G1 X178.87 Y171.358 F33600
SET_VELOCITY_LIMIT ACCEL=2000 ACCEL_TO_DECEL=2000
G1 F7600
G1 X171.358 Y178.87 E.32647
SET_VELOCITY_LIMIT ACCEL=11000 ACCEL_TO_DECEL=11000
G1 X170.823 Y178.87 F33600
SET_VELOCITY_LIMIT ACCEL=2000 ACCEL_TO_DECEL=2000
G1 F7600
G1 X178.87 Y170.823 E.34969
SET_VELOCITY_LIMIT ACCEL=11000 ACCEL_TO_DECEL=11000
G1 X178.87 Y170.289 F33600
SET_VELOCITY_LIMIT ACCEL=2000 ACCEL_TO_DECEL=2000
G1 F7600
G1 X170.289 Y178.87 E.37291
SET_VELOCITY_LIMIT ACCEL=11000 ACCEL_TO_DECEL=11000
G1 X169.754 Y178.87 F33600
SET_VELOCITY_LIMIT ACCEL=2000 ACCEL_TO_DECEL=2000
G1 F7600
G1 X178.87 Y169.754 E.39613
SET_VELOCITY_LIMIT ACCEL=11000 ACCEL_TO_DECEL=11000
G1 X178.87 Y169.22 F33600
SET_VELOCITY_LIMIT ACCEL=2000 ACCEL_TO_DECEL=2000
G1 F7600
G1 X169.22 Y178.87 E.41935
SET_VELOCITY_LIMIT ACCEL=11000 ACCEL_TO_DECEL=11000
G1 X168.686 Y178.87 F33600
SET_VELOCITY_LIMIT ACCEL=2000 ACCEL_TO_DECEL=2000
G1 F7600
G1 X178.87 Y168.686 E.44257
SET_VELOCITY_LIMIT ACCEL=11000 ACCEL_TO_DECEL=11000
G1 X178.87 Y168.151 F33600
SET_VELOCITY_LIMIT ACCEL=2000 ACCEL_TO_DECEL=2000
G1 F7600
G1 X168.151 Y178.87 E.46579
SET_VELOCITY_LIMIT ACCEL=11000 ACCEL_TO_DECEL=11000
G1 X167.617 Y178.87 F33600
SET_VELOCITY_LIMIT ACCEL=2000 ACCEL_TO_DECEL=2000
G1 F7600
G1 X178.87 Y167.617 E.48901
SET_VELOCITY_LIMIT ACCEL=11000 ACCEL_TO_DECEL=11000
G1 X178.87 Y167.083 F33600
SET_VELOCITY_LIMIT ACCEL=2000 ACCEL_TO_DECEL=2000
G1 F7600
G1 X167.083 Y178.87 E.51223
SET_VELOCITY_LIMIT ACCEL=11000 ACCEL_TO_DECEL=11000
G1 X166.548 Y178.87 F33600
SET_VELOCITY_LIMIT ACCEL=2000 ACCEL_TO_DECEL=2000
G1 F7600
G1 X178.87 Y166.548 E.53545
SET_VELOCITY_LIMIT ACCEL=11000 ACCEL_TO_DECEL=11000
G1 X178.87 Y166.014 F33600
SET_VELOCITY_LIMIT ACCEL=2000 ACCEL_TO_DECEL=2000
G1 F7600
G1 X166.014 Y178.87 E.55867
SET_VELOCITY_LIMIT ACCEL=11000 ACCEL_TO_DECEL=11000
G1 X165.48 Y178.87 F33600
SET_VELOCITY_LIMIT ACCEL=2000 ACCEL_TO_DECEL=2000
G1 F7600
G1 X178.87 Y165.48 E.58189
SET_VELOCITY_LIMIT ACCEL=11000 ACCEL_TO_DECEL=11000
G1 X178.87 Y164.945 F33600
SET_VELOCITY_LIMIT ACCEL=2000 ACCEL_TO_DECEL=2000
G1 F7600
G1 X164.945 Y178.87 E.60511
SET_VELOCITY_LIMIT ACCEL=11000 ACCEL_TO_DECEL=11000
G1 X164.411 Y178.87 F33600
SET_VELOCITY_LIMIT ACCEL=2000 ACCEL_TO_DECEL=2000
G1 F7600
G1 X178.87 Y164.411 E.62833
SET_VELOCITY_LIMIT ACCEL=11000 ACCEL_TO_DECEL=11000
G1 X178.87 Y163.877 F33600
SET_VELOCITY_LIMIT ACCEL=2000 ACCEL_TO_DECEL=2000
G1 F7600
G1 X163.877 Y178.87 E.65155
SET_VELOCITY_LIMIT ACCEL=11000 ACCEL_TO_DECEL=11000
G1 X163.342 Y178.87 F33600
SET_VELOCITY_LIMIT ACCEL=2000 ACCEL_TO_DECEL=2000
G1 F7600
G1 X178.87 Y163.342 E.67477
SET_VELOCITY_LIMIT ACCEL=11000 ACCEL_TO_DECEL=11000
G1 X178.87 Y162.808 F33600
SET_VELOCITY_LIMIT ACCEL=2000 ACCEL_TO_DECEL=2000
G1 F7600
G1 X162.808 Y178.87 E.69799
SET_VELOCITY_LIMIT ACCEL=11000 ACCEL_TO_DECEL=11000
G1 X162.274 Y178.87 F33600
SET_VELOCITY_LIMIT ACCEL=2000 ACCEL_TO_DECEL=2000
G1 F7600
G1 X178.87 Y162.274 E.7212
SET_VELOCITY_LIMIT ACCEL=11000 ACCEL_TO_DECEL=11000
G1 X178.87 Y161.739 F33600
SET_VELOCITY_LIMIT ACCEL=2000 ACCEL_TO_DECEL=2000
G1 F7600
G1 X161.739 Y178.87 E.74442
SET_VELOCITY_LIMIT ACCEL=11000 ACCEL_TO_DECEL=11000
G1 X161.205 Y178.87 F33600
SET_VELOCITY_LIMIT ACCEL=2000 ACCEL_TO_DECEL=2000
G1 F7600
G1 X178.87 Y161.205 E.76764
SET_VELOCITY_LIMIT ACCEL=11000 ACCEL_TO_DECEL=11000
G1 X178.87 Y160.671 F33600
M73 P48 R4
SET_VELOCITY_LIMIT ACCEL=2000 ACCEL_TO_DECEL=2000
G1 F7600
G1 X160.671 Y178.87 E.79086
SET_VELOCITY_LIMIT ACCEL=11000 ACCEL_TO_DECEL=11000
G1 X160.136 Y178.87 F33600
SET_VELOCITY_LIMIT ACCEL=2000 ACCEL_TO_DECEL=2000
G1 F7600
G1 X178.87 Y160.136 E.81408
SET_VELOCITY_LIMIT ACCEL=11000 ACCEL_TO_DECEL=11000
G1 X178.87 Y159.602 F33600
SET_VELOCITY_LIMIT ACCEL=2000 ACCEL_TO_DECEL=2000
G1 F7600
G1 X159.602 Y178.87 E.8373
SET_VELOCITY_LIMIT ACCEL=11000 ACCEL_TO_DECEL=11000
G1 X159.068 Y178.87 F33600
SET_VELOCITY_LIMIT ACCEL=2000 ACCEL_TO_DECEL=2000
G1 F7600
G1 X178.87 Y159.068 E.86052
SET_VELOCITY_LIMIT ACCEL=11000 ACCEL_TO_DECEL=11000
G1 X178.87 Y158.533 F33600
SET_VELOCITY_LIMIT ACCEL=2000 ACCEL_TO_DECEL=2000
G1 F7600
G1 X158.533 Y178.87 E.88374
SET_VELOCITY_LIMIT ACCEL=11000 ACCEL_TO_DECEL=11000
G1 X157.999 Y178.87 F33600
SET_VELOCITY_LIMIT ACCEL=2000 ACCEL_TO_DECEL=2000
G1 F7600
G1 X178.87 Y157.999 E.90696
SET_VELOCITY_LIMIT ACCEL=11000 ACCEL_TO_DECEL=11000
G1 X178.87 Y157.465 F33600
SET_VELOCITY_LIMIT ACCEL=2000 ACCEL_TO_DECEL=2000
G1 F7600
G1 X157.465 Y178.87 E.93018
SET_VELOCITY_LIMIT ACCEL=11000 ACCEL_TO_DECEL=11000
G1 X156.93 Y178.87 F33600
SET_VELOCITY_LIMIT ACCEL=2000 ACCEL_TO_DECEL=2000
G1 F7600
G1 X178.87 Y156.93 E.9534
SET_VELOCITY_LIMIT ACCEL=11000 ACCEL_TO_DECEL=11000
G1 X178.87 Y156.396 F33600
SET_VELOCITY_LIMIT ACCEL=2000 ACCEL_TO_DECEL=2000
G1 F7600
G1 X156.396 Y178.87 E.97662
SET_VELOCITY_LIMIT ACCEL=11000 ACCEL_TO_DECEL=11000
G1 X155.862 Y178.87 F33600
SET_VELOCITY_LIMIT ACCEL=2000 ACCEL_TO_DECEL=2000
G1 F7600
G1 X178.87 Y155.862 E.99984
SET_VELOCITY_LIMIT ACCEL=11000 ACCEL_TO_DECEL=11000
G1 X178.87 Y155.327 F33600
SET_VELOCITY_LIMIT ACCEL=2000 ACCEL_TO_DECEL=2000
G1 F7600
G1 X155.327 Y178.87 E1.02306
SET_VELOCITY_LIMIT ACCEL=11000 ACCEL_TO_DECEL=11000
G1 X154.793 Y178.87 F33600
SET_VELOCITY_LIMIT ACCEL=2000 ACCEL_TO_DECEL=2000
G1 F7600
G1 X178.87 Y154.793 E1.04628
SET_VELOCITY_LIMIT ACCEL=11000 ACCEL_TO_DECEL=11000
G1 X178.87 Y154.259 F33600
SET_VELOCITY_LIMIT ACCEL=2000 ACCEL_TO_DECEL=2000
G1 F7600
G1 X154.259 Y178.87 E1.0695
SET_VELOCITY_LIMIT ACCEL=11000 ACCEL_TO_DECEL=11000
G1 X153.724 Y178.87 F33600
SET_VELOCITY_LIMIT ACCEL=2000 ACCEL_TO_DECEL=2000
G1 F7600
G1 X178.87 Y153.724 E1.09272
SET_VELOCITY_LIMIT ACCEL=11000 ACCEL_TO_DECEL=11000
G1 X178.87 Y153.19 F33600
SET_VELOCITY_LIMIT ACCEL=2000 ACCEL_TO_DECEL=2000
G1 F7600
G1 X153.19 Y178.87 E1.11594
SET_VELOCITY_LIMIT ACCEL=11000 ACCEL_TO_DECEL=11000
G1 X152.656 Y178.87 F33600
SET_VELOCITY_LIMIT ACCEL=2000 ACCEL_TO_DECEL=2000
G1 F7600
G1 X178.87 Y152.656 E1.13916
SET_VELOCITY_LIMIT ACCEL=11000 ACCEL_TO_DECEL=11000
G1 X178.87 Y152.121 F33600
M73 P49 R4
SET_VELOCITY_LIMIT ACCEL=2000 ACCEL_TO_DECEL=2000
G1 F7600
G1 X152.121 Y178.87 E1.16238
SET_VELOCITY_LIMIT ACCEL=11000 ACCEL_TO_DECEL=11000
G1 X151.587 Y178.87 F33600
SET_VELOCITY_LIMIT ACCEL=2000 ACCEL_TO_DECEL=2000
G1 F7600
G1 X178.87 Y151.587 E1.1856
SET_VELOCITY_LIMIT ACCEL=11000 ACCEL_TO_DECEL=11000
G1 X178.87 Y151.053 F33600
SET_VELOCITY_LIMIT ACCEL=2000 ACCEL_TO_DECEL=2000
G1 F7600
G1 X151.053 Y178.87 E1.20882
SET_VELOCITY_LIMIT ACCEL=11000 ACCEL_TO_DECEL=11000
G1 X150.518 Y178.87 F33600
SET_VELOCITY_LIMIT ACCEL=2000 ACCEL_TO_DECEL=2000
G1 F7600
G1 X178.87 Y150.518 E1.23204
SET_VELOCITY_LIMIT ACCEL=11000 ACCEL_TO_DECEL=11000
G1 X178.87 Y149.984 F33600
SET_VELOCITY_LIMIT ACCEL=2000 ACCEL_TO_DECEL=2000
G1 F7600
G1 X149.984 Y178.87 E1.25526
SET_VELOCITY_LIMIT ACCEL=11000 ACCEL_TO_DECEL=11000
G1 X149.45 Y178.87 F33600
SET_VELOCITY_LIMIT ACCEL=2000 ACCEL_TO_DECEL=2000
G1 F7600
G1 X178.87 Y149.45 E1.27848
SET_VELOCITY_LIMIT ACCEL=11000 ACCEL_TO_DECEL=11000
G1 X178.87 Y148.915 F33600
SET_VELOCITY_LIMIT ACCEL=2000 ACCEL_TO_DECEL=2000
G1 F7600
G1 X148.915 Y178.87 E1.3017
SET_VELOCITY_LIMIT ACCEL=11000 ACCEL_TO_DECEL=11000
G1 X148.381 Y178.87 F33600
SET_VELOCITY_LIMIT ACCEL=2000 ACCEL_TO_DECEL=2000
G1 F7600
G1 X178.87 Y148.381 E1.32492
SET_VELOCITY_LIMIT ACCEL=11000 ACCEL_TO_DECEL=11000
G1 X178.87 Y147.847 F33600
SET_VELOCITY_LIMIT ACCEL=2000 ACCEL_TO_DECEL=2000
G1 F7600
G1 X147.847 Y178.87 E1.34814
SET_VELOCITY_LIMIT ACCEL=11000 ACCEL_TO_DECEL=11000
G1 X147.312 Y178.87 F33600
SET_VELOCITY_LIMIT ACCEL=2000 ACCEL_TO_DECEL=2000
G1 F7600
G1 X178.87 Y147.312 E1.37135
SET_VELOCITY_LIMIT ACCEL=11000 ACCEL_TO_DECEL=11000
G1 X178.87 Y146.778 F33600
SET_VELOCITY_LIMIT ACCEL=2000 ACCEL_TO_DECEL=2000
G1 F7600
G1 X146.778 Y178.87 E1.39457
SET_VELOCITY_LIMIT ACCEL=11000 ACCEL_TO_DECEL=11000
G1 X146.244 Y178.87 F33600
SET_VELOCITY_LIMIT ACCEL=2000 ACCEL_TO_DECEL=2000
G1 F7600
G1 X178.87 Y146.244 E1.41779
SET_VELOCITY_LIMIT ACCEL=11000 ACCEL_TO_DECEL=11000
G1 X178.87 Y145.709 F33600
SET_VELOCITY_LIMIT ACCEL=2000 ACCEL_TO_DECEL=2000
G1 F7600
G1 X145.709 Y178.87 E1.44101
SET_VELOCITY_LIMIT ACCEL=11000 ACCEL_TO_DECEL=11000
G1 X145.175 Y178.87 F33600
M73 P50 R4
SET_VELOCITY_LIMIT ACCEL=2000 ACCEL_TO_DECEL=2000
G1 F7600
G1 X178.87 Y145.175 E1.46423
SET_VELOCITY_LIMIT ACCEL=11000 ACCEL_TO_DECEL=11000
G1 X178.87 Y144.641 F33600
SET_VELOCITY_LIMIT ACCEL=2000 ACCEL_TO_DECEL=2000
G1 F7600
G1 X144.641 Y178.87 E1.48745
SET_VELOCITY_LIMIT ACCEL=11000 ACCEL_TO_DECEL=11000
G1 X144.106 Y178.87 F33600
SET_VELOCITY_LIMIT ACCEL=2000 ACCEL_TO_DECEL=2000
G1 F7600
G1 X178.87 Y144.106 E1.51067
SET_VELOCITY_LIMIT ACCEL=11000 ACCEL_TO_DECEL=11000
G1 X178.87 Y143.572 F33600
SET_VELOCITY_LIMIT ACCEL=2000 ACCEL_TO_DECEL=2000
G1 F7600
G1 X143.572 Y178.87 E1.53389
SET_VELOCITY_LIMIT ACCEL=11000 ACCEL_TO_DECEL=11000
G1 X143.038 Y178.87 F33600
SET_VELOCITY_LIMIT ACCEL=2000 ACCEL_TO_DECEL=2000
G1 F7600
G1 X178.87 Y143.038 E1.55711
SET_VELOCITY_LIMIT ACCEL=11000 ACCEL_TO_DECEL=11000
G1 X178.87 Y142.503 F33600
SET_VELOCITY_LIMIT ACCEL=2000 ACCEL_TO_DECEL=2000
G1 F7600
G1 X142.503 Y178.87 E1.58033
SET_VELOCITY_LIMIT ACCEL=11000 ACCEL_TO_DECEL=11000
G1 X141.969 Y178.87 F33600
SET_VELOCITY_LIMIT ACCEL=2000 ACCEL_TO_DECEL=2000
G1 F7600
G1 X178.87 Y141.969 E1.60355
SET_VELOCITY_LIMIT ACCEL=11000 ACCEL_TO_DECEL=11000
G1 X178.87 Y141.435 F33600
M73 P50 R3
SET_VELOCITY_LIMIT ACCEL=2000 ACCEL_TO_DECEL=2000
G1 F7600
G1 X141.434 Y178.87 E1.62677
SET_VELOCITY_LIMIT ACCEL=11000 ACCEL_TO_DECEL=11000
G1 X140.9 Y178.87 F33600
SET_VELOCITY_LIMIT ACCEL=2000 ACCEL_TO_DECEL=2000
G1 F7600
G1 X178.87 Y140.9 E1.64999
SET_VELOCITY_LIMIT ACCEL=11000 ACCEL_TO_DECEL=11000
G1 X178.87 Y140.366 F33600
SET_VELOCITY_LIMIT ACCEL=2000 ACCEL_TO_DECEL=2000
G1 F7600
G1 X140.366 Y178.87 E1.67321
SET_VELOCITY_LIMIT ACCEL=11000 ACCEL_TO_DECEL=11000
G1 X139.831 Y178.87 F33600
SET_VELOCITY_LIMIT ACCEL=2000 ACCEL_TO_DECEL=2000
G1 F7600
G1 X178.87 Y139.831 E1.69643
SET_VELOCITY_LIMIT ACCEL=11000 ACCEL_TO_DECEL=11000
G1 X178.87 Y139.297 F33600
M73 P51 R3
SET_VELOCITY_LIMIT ACCEL=2000 ACCEL_TO_DECEL=2000
G1 F7600
G1 X139.297 Y178.87 E1.71965
SET_VELOCITY_LIMIT ACCEL=11000 ACCEL_TO_DECEL=11000
G1 X138.763 Y178.87 F33600
SET_VELOCITY_LIMIT ACCEL=2000 ACCEL_TO_DECEL=2000
G1 F7600
G1 X178.87 Y138.763 E1.74287
SET_VELOCITY_LIMIT ACCEL=11000 ACCEL_TO_DECEL=11000
G1 X178.87 Y138.228 F33600
SET_VELOCITY_LIMIT ACCEL=2000 ACCEL_TO_DECEL=2000
G1 F7600
G1 X138.228 Y178.87 E1.76609
SET_VELOCITY_LIMIT ACCEL=11000 ACCEL_TO_DECEL=11000
G1 X137.694 Y178.87 F33600
SET_VELOCITY_LIMIT ACCEL=2000 ACCEL_TO_DECEL=2000
G1 F7600
G1 X178.87 Y137.694 E1.78931
SET_VELOCITY_LIMIT ACCEL=11000 ACCEL_TO_DECEL=11000
G1 X178.87 Y137.16 F33600
SET_VELOCITY_LIMIT ACCEL=2000 ACCEL_TO_DECEL=2000
G1 F7600
G1 X137.16 Y178.87 E1.81253
SET_VELOCITY_LIMIT ACCEL=11000 ACCEL_TO_DECEL=11000
G1 X136.625 Y178.87 F33600
SET_VELOCITY_LIMIT ACCEL=2000 ACCEL_TO_DECEL=2000
G1 F7600
G1 X178.87 Y136.625 E1.83575
SET_VELOCITY_LIMIT ACCEL=11000 ACCEL_TO_DECEL=11000
G1 X178.87 Y136.091 F33600
SET_VELOCITY_LIMIT ACCEL=2000 ACCEL_TO_DECEL=2000
G1 F7600
G1 X136.091 Y178.87 E1.85897
SET_VELOCITY_LIMIT ACCEL=11000 ACCEL_TO_DECEL=11000
G1 X135.557 Y178.87 F33600
SET_VELOCITY_LIMIT ACCEL=2000 ACCEL_TO_DECEL=2000
G1 F7600
G1 X178.87 Y135.557 E1.88219
SET_VELOCITY_LIMIT ACCEL=11000 ACCEL_TO_DECEL=11000
G1 X178.87 Y135.022 F33600
SET_VELOCITY_LIMIT ACCEL=2000 ACCEL_TO_DECEL=2000
G1 F7600
G1 X135.022 Y178.87 E1.90541
SET_VELOCITY_LIMIT ACCEL=11000 ACCEL_TO_DECEL=11000
G1 X134.488 Y178.87 F33600
M73 P52 R3
SET_VELOCITY_LIMIT ACCEL=2000 ACCEL_TO_DECEL=2000
G1 F7600
G1 X178.87 Y134.488 E1.92863
SET_VELOCITY_LIMIT ACCEL=11000 ACCEL_TO_DECEL=11000
G1 X178.87 Y133.954 F33600
SET_VELOCITY_LIMIT ACCEL=2000 ACCEL_TO_DECEL=2000
G1 F7600
G1 X133.954 Y178.87 E1.95185
SET_VELOCITY_LIMIT ACCEL=11000 ACCEL_TO_DECEL=11000
G1 X133.419 Y178.87 F33600
SET_VELOCITY_LIMIT ACCEL=2000 ACCEL_TO_DECEL=2000
G1 F7600
G1 X178.87 Y133.419 E1.97507
SET_VELOCITY_LIMIT ACCEL=11000 ACCEL_TO_DECEL=11000
G1 X178.87 Y132.885 F33600
SET_VELOCITY_LIMIT ACCEL=2000 ACCEL_TO_DECEL=2000
G1 F7600
G1 X132.885 Y178.87 E1.99828
SET_VELOCITY_LIMIT ACCEL=11000 ACCEL_TO_DECEL=11000
G1 X132.351 Y178.87 F33600
SET_VELOCITY_LIMIT ACCEL=2000 ACCEL_TO_DECEL=2000
G1 F7600
G1 X178.87 Y132.351 E2.0215
SET_VELOCITY_LIMIT ACCEL=11000 ACCEL_TO_DECEL=11000
G1 X178.87 Y131.816 F33600
SET_VELOCITY_LIMIT ACCEL=2000 ACCEL_TO_DECEL=2000
G1 F7600
G1 X131.816 Y178.87 E2.04472
SET_VELOCITY_LIMIT ACCEL=11000 ACCEL_TO_DECEL=11000
G1 X131.282 Y178.87 F33600
SET_VELOCITY_LIMIT ACCEL=2000 ACCEL_TO_DECEL=2000
G1 F7600
G1 X178.87 Y131.282 E2.06794
SET_VELOCITY_LIMIT ACCEL=11000 ACCEL_TO_DECEL=11000
G1 X178.87 Y130.748 F33600
SET_VELOCITY_LIMIT ACCEL=2000 ACCEL_TO_DECEL=2000
G1 F7600
G1 X130.748 Y178.87 E2.09116
SET_VELOCITY_LIMIT ACCEL=11000 ACCEL_TO_DECEL=11000
G1 X130.213 Y178.87 F33600
M73 P53 R3
SET_VELOCITY_LIMIT ACCEL=2000 ACCEL_TO_DECEL=2000
G1 F7600
G1 X178.87 Y130.213 E2.11438
SET_VELOCITY_LIMIT ACCEL=11000 ACCEL_TO_DECEL=11000
G1 X178.87 Y129.679 F33600
SET_VELOCITY_LIMIT ACCEL=2000 ACCEL_TO_DECEL=2000
G1 F7600
G1 X129.679 Y178.87 E2.1376
SET_VELOCITY_LIMIT ACCEL=11000 ACCEL_TO_DECEL=11000
G1 X129.145 Y178.87 F33600
SET_VELOCITY_LIMIT ACCEL=2000 ACCEL_TO_DECEL=2000
G1 F7600
G1 X178.87 Y129.145 E2.16082
SET_VELOCITY_LIMIT ACCEL=11000 ACCEL_TO_DECEL=11000
G1 X178.87 Y128.61 F33600
SET_VELOCITY_LIMIT ACCEL=2000 ACCEL_TO_DECEL=2000
G1 F7600
G1 X128.61 Y178.87 E2.18404
SET_VELOCITY_LIMIT ACCEL=11000 ACCEL_TO_DECEL=11000
G1 X128.076 Y178.87 F33600
SET_VELOCITY_LIMIT ACCEL=2000 ACCEL_TO_DECEL=2000
G1 F7600
G1 X178.87 Y128.076 E2.20726
SET_VELOCITY_LIMIT ACCEL=11000 ACCEL_TO_DECEL=11000
G1 X178.87 Y127.542 F33600
SET_VELOCITY_LIMIT ACCEL=2000 ACCEL_TO_DECEL=2000
G1 F7600
G1 X127.542 Y178.87 E2.23048
SET_VELOCITY_LIMIT ACCEL=11000 ACCEL_TO_DECEL=11000
G1 X127.007 Y178.87 F33600
SET_VELOCITY_LIMIT ACCEL=2000 ACCEL_TO_DECEL=2000
G1 F7600
G1 X178.87 Y127.007 E2.2537
SET_VELOCITY_LIMIT ACCEL=11000 ACCEL_TO_DECEL=11000
G1 X178.87 Y126.473 F33600
SET_VELOCITY_LIMIT ACCEL=2000 ACCEL_TO_DECEL=2000
G1 F7600
G1 X126.473 Y178.87 E2.27692
SET_VELOCITY_LIMIT ACCEL=11000 ACCEL_TO_DECEL=11000
G1 X125.939 Y178.87 F33600
M73 P54 R3
SET_VELOCITY_LIMIT ACCEL=2000 ACCEL_TO_DECEL=2000
G1 F7600
G1 X178.87 Y125.939 E2.30014
SET_VELOCITY_LIMIT ACCEL=11000 ACCEL_TO_DECEL=11000
G1 X178.87 Y125.404 F33600
SET_VELOCITY_LIMIT ACCEL=2000 ACCEL_TO_DECEL=2000
G1 F7600
G1 X125.404 Y178.87 E2.32336
SET_VELOCITY_LIMIT ACCEL=11000 ACCEL_TO_DECEL=11000
G1 X124.87 Y178.87 F33600
SET_VELOCITY_LIMIT ACCEL=2000 ACCEL_TO_DECEL=2000
G1 F7600
G1 X178.87 Y124.87 E2.34658
SET_VELOCITY_LIMIT ACCEL=11000 ACCEL_TO_DECEL=11000
G1 X178.87 Y124.336 F33600
SET_VELOCITY_LIMIT ACCEL=2000 ACCEL_TO_DECEL=2000
G1 F7600
G1 X124.336 Y178.87 E2.3698
SET_VELOCITY_LIMIT ACCEL=11000 ACCEL_TO_DECEL=11000
G1 X123.801 Y178.87 F33600
SET_VELOCITY_LIMIT ACCEL=2000 ACCEL_TO_DECEL=2000
G1 F7600
G1 X178.87 Y123.801 E2.39302
SET_VELOCITY_LIMIT ACCEL=11000 ACCEL_TO_DECEL=11000
G1 X178.87 Y123.267 F33600
SET_VELOCITY_LIMIT ACCEL=2000 ACCEL_TO_DECEL=2000
G1 F7600
G1 X123.267 Y178.87 E2.41624
SET_VELOCITY_LIMIT ACCEL=11000 ACCEL_TO_DECEL=11000
G1 X122.733 Y178.87 F33600
SET_VELOCITY_LIMIT ACCEL=2000 ACCEL_TO_DECEL=2000
G1 F7600
G1 X178.87 Y122.733 E2.43946
SET_VELOCITY_LIMIT ACCEL=11000 ACCEL_TO_DECEL=11000
G1 X178.87 Y122.198 F33600
SET_VELOCITY_LIMIT ACCEL=2000 ACCEL_TO_DECEL=2000
G1 F7600
G1 X122.198 Y178.87 E2.46268
SET_VELOCITY_LIMIT ACCEL=11000 ACCEL_TO_DECEL=11000
G1 X121.664 Y178.87 F33600
M73 P55 R3
SET_VELOCITY_LIMIT ACCEL=2000 ACCEL_TO_DECEL=2000
G1 F7600
G1 X178.87 Y121.664 E2.4859
SET_VELOCITY_LIMIT ACCEL=11000 ACCEL_TO_DECEL=11000
G1 X178.87 Y121.13 F33600
SET_VELOCITY_LIMIT ACCEL=2000 ACCEL_TO_DECEL=2000
G1 F7600
G1 X121.13 Y178.87 E2.50912
SET_VELOCITY_LIMIT ACCEL=11000 ACCEL_TO_DECEL=11000
G1 X121.13 Y178.336 F33600
SET_VELOCITY_LIMIT ACCEL=2000 ACCEL_TO_DECEL=2000
G1 F7600
G1 X178.336 Y121.13 E2.4859
SET_VELOCITY_LIMIT ACCEL=11000 ACCEL_TO_DECEL=11000
G1 X177.802 Y121.13 F33600
SET_VELOCITY_LIMIT ACCEL=2000 ACCEL_TO_DECEL=2000
G1 F7600
G1 X121.13 Y177.802 E2.46268
SET_VELOCITY_LIMIT ACCEL=11000 ACCEL_TO_DECEL=11000
G1 X121.13 Y177.267 F33600
SET_VELOCITY_LIMIT ACCEL=2000 ACCEL_TO_DECEL=2000
G1 F7600
G1 X177.267 Y121.13 E2.43946
SET_VELOCITY_LIMIT ACCEL=11000 ACCEL_TO_DECEL=11000
G1 X176.733 Y121.13 F33600
SET_VELOCITY_LIMIT ACCEL=2000 ACCEL_TO_DECEL=2000
G1 F7600
G1 X121.13 Y176.733 E2.41624
SET_VELOCITY_LIMIT ACCEL=11000 ACCEL_TO_DECEL=11000
G1 X121.13 Y176.199 F33600
SET_VELOCITY_LIMIT ACCEL=2000 ACCEL_TO_DECEL=2000
G1 F7600
G1 X176.199 Y121.13 E2.39302
SET_VELOCITY_LIMIT ACCEL=11000 ACCEL_TO_DECEL=11000
G1 X175.664 Y121.13 F33600
M73 P56 R3
SET_VELOCITY_LIMIT ACCEL=2000 ACCEL_TO_DECEL=2000
G1 F7600
G1 X121.13 Y175.664 E2.3698
SET_VELOCITY_LIMIT ACCEL=11000 ACCEL_TO_DECEL=11000
G1 X121.13 Y175.13 F33600
SET_VELOCITY_LIMIT ACCEL=2000 ACCEL_TO_DECEL=2000
G1 F7600
G1 X175.13 Y121.13 E2.34658
SET_VELOCITY_LIMIT ACCEL=11000 ACCEL_TO_DECEL=11000
G1 X174.596 Y121.13 F33600
SET_VELOCITY_LIMIT ACCEL=2000 ACCEL_TO_DECEL=2000
G1 F7600
G1 X121.13 Y174.596 E2.32336
SET_VELOCITY_LIMIT ACCEL=11000 ACCEL_TO_DECEL=11000
G1 X121.13 Y174.061 F33600
SET_VELOCITY_LIMIT ACCEL=2000 ACCEL_TO_DECEL=2000
G1 F7600
G1 X174.061 Y121.13 E2.30014
SET_VELOCITY_LIMIT ACCEL=11000 ACCEL_TO_DECEL=11000
G1 X173.527 Y121.13 F33600
SET_VELOCITY_LIMIT ACCEL=2000 ACCEL_TO_DECEL=2000
G1 F7600
G1 X121.13 Y173.527 E2.27692
SET_VELOCITY_LIMIT ACCEL=11000 ACCEL_TO_DECEL=11000
G1 X121.13 Y172.993 F33600
SET_VELOCITY_LIMIT ACCEL=2000 ACCEL_TO_DECEL=2000
G1 F7600
G1 X172.993 Y121.13 E2.2537
SET_VELOCITY_LIMIT ACCEL=11000 ACCEL_TO_DECEL=11000
G1 X172.458 Y121.13 F33600
SET_VELOCITY_LIMIT ACCEL=2000 ACCEL_TO_DECEL=2000
G1 F7600
G1 X121.13 Y172.458 E2.23048
SET_VELOCITY_LIMIT ACCEL=11000 ACCEL_TO_DECEL=11000
G1 X121.13 Y171.924 F33600
M73 P57 R3
SET_VELOCITY_LIMIT ACCEL=2000 ACCEL_TO_DECEL=2000
G1 F7600
G1 X171.924 Y121.13 E2.20726
SET_VELOCITY_LIMIT ACCEL=11000 ACCEL_TO_DECEL=11000
G1 X171.39 Y121.13 F33600
SET_VELOCITY_LIMIT ACCEL=2000 ACCEL_TO_DECEL=2000
G1 F7600
G1 X121.13 Y171.39 E2.18404
SET_VELOCITY_LIMIT ACCEL=11000 ACCEL_TO_DECEL=11000
G1 X121.13 Y170.855 F33600
SET_VELOCITY_LIMIT ACCEL=2000 ACCEL_TO_DECEL=2000
G1 F7600
G1 X170.855 Y121.13 E2.16082
SET_VELOCITY_LIMIT ACCEL=11000 ACCEL_TO_DECEL=11000
G1 X170.321 Y121.13 F33600
SET_VELOCITY_LIMIT ACCEL=2000 ACCEL_TO_DECEL=2000
G1 F7600
G1 X121.13 Y170.321 E2.1376
SET_VELOCITY_LIMIT ACCEL=11000 ACCEL_TO_DECEL=11000
G1 X121.13 Y169.787 F33600
SET_VELOCITY_LIMIT ACCEL=2000 ACCEL_TO_DECEL=2000
G1 F7600
G1 X169.787 Y121.13 E2.11438
SET_VELOCITY_LIMIT ACCEL=11000 ACCEL_TO_DECEL=11000
G1 X169.252 Y121.13 F33600
SET_VELOCITY_LIMIT ACCEL=2000 ACCEL_TO_DECEL=2000
G1 F7600
G1 X121.13 Y169.252 E2.09116
SET_VELOCITY_LIMIT ACCEL=11000 ACCEL_TO_DECEL=11000
G1 X121.13 Y168.718 F33600
SET_VELOCITY_LIMIT ACCEL=2000 ACCEL_TO_DECEL=2000
G1 F7600
G1 X168.718 Y121.13 E2.06794
SET_VELOCITY_LIMIT ACCEL=11000 ACCEL_TO_DECEL=11000
G1 X168.184 Y121.13 F33600
SET_VELOCITY_LIMIT ACCEL=2000 ACCEL_TO_DECEL=2000
G1 F7600
G1 X121.13 Y168.184 E2.04472
SET_VELOCITY_LIMIT ACCEL=11000 ACCEL_TO_DECEL=11000
G1 X121.13 Y167.649 F33600
M73 P58 R3
SET_VELOCITY_LIMIT ACCEL=2000 ACCEL_TO_DECEL=2000
G1 F7600
G1 X167.649 Y121.13 E2.0215
SET_VELOCITY_LIMIT ACCEL=11000 ACCEL_TO_DECEL=11000
G1 X167.115 Y121.13 F33600
SET_VELOCITY_LIMIT ACCEL=2000 ACCEL_TO_DECEL=2000
G1 F7600
G1 X121.13 Y167.115 E1.99828
SET_VELOCITY_LIMIT ACCEL=11000 ACCEL_TO_DECEL=11000
G1 X121.13 Y166.581 F33600
SET_VELOCITY_LIMIT ACCEL=2000 ACCEL_TO_DECEL=2000
G1 F7600
G1 X166.581 Y121.13 E1.97506
SET_VELOCITY_LIMIT ACCEL=11000 ACCEL_TO_DECEL=11000
G1 X166.046 Y121.13 F33600
SET_VELOCITY_LIMIT ACCEL=2000 ACCEL_TO_DECEL=2000
G1 F7600
G1 X121.13 Y166.046 E1.95184
SET_VELOCITY_LIMIT ACCEL=11000 ACCEL_TO_DECEL=11000
G1 X121.13 Y165.512 F33600
SET_VELOCITY_LIMIT ACCEL=2000 ACCEL_TO_DECEL=2000
G1 F7600
G1 X165.512 Y121.13 E1.92863
SET_VELOCITY_LIMIT ACCEL=11000 ACCEL_TO_DECEL=11000
G1 X164.978 Y121.13 F33600
SET_VELOCITY_LIMIT ACCEL=2000 ACCEL_TO_DECEL=2000
G1 F7600
G1 X121.13 Y164.978 E1.90541
SET_VELOCITY_LIMIT ACCEL=11000 ACCEL_TO_DECEL=11000
G1 X121.13 Y164.443 F33600
SET_VELOCITY_LIMIT ACCEL=2000 ACCEL_TO_DECEL=2000
G1 F7600
G1 X164.443 Y121.13 E1.88219
SET_VELOCITY_LIMIT ACCEL=11000 ACCEL_TO_DECEL=11000
G1 X163.909 Y121.13 F33600
SET_VELOCITY_LIMIT ACCEL=2000 ACCEL_TO_DECEL=2000
G1 F7600
G1 X121.13 Y163.909 E1.85897
SET_VELOCITY_LIMIT ACCEL=11000 ACCEL_TO_DECEL=11000
G1 X121.13 Y163.375 F33600
SET_VELOCITY_LIMIT ACCEL=2000 ACCEL_TO_DECEL=2000
G1 F7600
G1 X163.375 Y121.13 E1.83575
SET_VELOCITY_LIMIT ACCEL=11000 ACCEL_TO_DECEL=11000
G1 X162.84 Y121.13 F33600
M73 P59 R3
SET_VELOCITY_LIMIT ACCEL=2000 ACCEL_TO_DECEL=2000
G1 F7600
G1 X121.13 Y162.84 E1.81253
SET_VELOCITY_LIMIT ACCEL=11000 ACCEL_TO_DECEL=11000
G1 X121.13 Y162.306 F33600
SET_VELOCITY_LIMIT ACCEL=2000 ACCEL_TO_DECEL=2000
G1 F7600
G1 X162.306 Y121.13 E1.78931
SET_VELOCITY_LIMIT ACCEL=11000 ACCEL_TO_DECEL=11000
G1 X161.772 Y121.13 F33600
SET_VELOCITY_LIMIT ACCEL=2000 ACCEL_TO_DECEL=2000
G1 F7600
G1 X121.13 Y161.772 E1.76609
SET_VELOCITY_LIMIT ACCEL=11000 ACCEL_TO_DECEL=11000
G1 X121.13 Y161.237 F33600
SET_VELOCITY_LIMIT ACCEL=2000 ACCEL_TO_DECEL=2000
G1 F7600
G1 X161.237 Y121.13 E1.74287
SET_VELOCITY_LIMIT ACCEL=11000 ACCEL_TO_DECEL=11000
G1 X160.703 Y121.13 F33600
SET_VELOCITY_LIMIT ACCEL=2000 ACCEL_TO_DECEL=2000
G1 F7600
G1 X121.13 Y160.703 E1.71965
SET_VELOCITY_LIMIT ACCEL=11000 ACCEL_TO_DECEL=11000
G1 X121.13 Y160.169 F33600
SET_VELOCITY_LIMIT ACCEL=2000 ACCEL_TO_DECEL=2000
G1 F7600
G1 X160.169 Y121.13 E1.69643
SET_VELOCITY_LIMIT ACCEL=11000 ACCEL_TO_DECEL=11000
G1 X159.634 Y121.13 F33600
SET_VELOCITY_LIMIT ACCEL=2000 ACCEL_TO_DECEL=2000
G1 F7600
G1 X121.13 Y159.634 E1.67321
SET_VELOCITY_LIMIT ACCEL=11000 ACCEL_TO_DECEL=11000
G1 X121.13 Y159.1 F33600
SET_VELOCITY_LIMIT ACCEL=2000 ACCEL_TO_DECEL=2000
G1 F7600
G1 X159.1 Y121.13 E1.64999
SET_VELOCITY_LIMIT ACCEL=11000 ACCEL_TO_DECEL=11000
G1 X158.565 Y121.13 F33600
SET_VELOCITY_LIMIT ACCEL=2000 ACCEL_TO_DECEL=2000
G1 F7600
G1 X121.13 Y158.565 E1.62677
SET_VELOCITY_LIMIT ACCEL=11000 ACCEL_TO_DECEL=11000
G1 X121.13 Y158.031 F33600
SET_VELOCITY_LIMIT ACCEL=2000 ACCEL_TO_DECEL=2000
G1 F7600
G1 X158.031 Y121.13 E1.60355
SET_VELOCITY_LIMIT ACCEL=11000 ACCEL_TO_DECEL=11000
G1 X157.497 Y121.13 F33600
M73 P60 R3
SET_VELOCITY_LIMIT ACCEL=2000 ACCEL_TO_DECEL=2000
G1 F7600
G1 X121.13 Y157.497 E1.58033
SET_VELOCITY_LIMIT ACCEL=11000 ACCEL_TO_DECEL=11000
G1 X121.13 Y156.962 F33600
SET_VELOCITY_LIMIT ACCEL=2000 ACCEL_TO_DECEL=2000
G1 F7600
G1 X156.962 Y121.13 E1.55711
SET_VELOCITY_LIMIT ACCEL=11000 ACCEL_TO_DECEL=11000
G1 X156.428 Y121.13 F33600
SET_VELOCITY_LIMIT ACCEL=2000 ACCEL_TO_DECEL=2000
G1 F7600
G1 X121.13 Y156.428 E1.53389
SET_VELOCITY_LIMIT ACCEL=11000 ACCEL_TO_DECEL=11000
G1 X121.13 Y155.894 F33600
SET_VELOCITY_LIMIT ACCEL=2000 ACCEL_TO_DECEL=2000
G1 F7600
G1 X155.894 Y121.13 E1.51067
SET_VELOCITY_LIMIT ACCEL=11000 ACCEL_TO_DECEL=11000
G1 X155.359 Y121.13 F33600
SET_VELOCITY_LIMIT ACCEL=2000 ACCEL_TO_DECEL=2000
G1 F7600
G1 X121.13 Y155.359 E1.48745
SET_VELOCITY_LIMIT ACCEL=11000 ACCEL_TO_DECEL=11000
G1 X121.13 Y154.825 F33600
SET_VELOCITY_LIMIT ACCEL=2000 ACCEL_TO_DECEL=2000
G1 F7600
G1 X154.825 Y121.13 E1.46423
SET_VELOCITY_LIMIT ACCEL=11000 ACCEL_TO_DECEL=11000
G1 X154.291 Y121.13 F33600
SET_VELOCITY_LIMIT ACCEL=2000 ACCEL_TO_DECEL=2000
G1 F7600
G1 X121.13 Y154.291 E1.44101
SET_VELOCITY_LIMIT ACCEL=11000 ACCEL_TO_DECEL=11000
G1 X121.13 Y153.756 F33600
SET_VELOCITY_LIMIT ACCEL=2000 ACCEL_TO_DECEL=2000
G1 F7600
G1 X153.756 Y121.13 E1.41779
SET_VELOCITY_LIMIT ACCEL=11000 ACCEL_TO_DECEL=11000
G1 X153.222 Y121.13 F33600
SET_VELOCITY_LIMIT ACCEL=2000 ACCEL_TO_DECEL=2000
G1 F7600
G1 X121.13 Y153.222 E1.39457
SET_VELOCITY_LIMIT ACCEL=11000 ACCEL_TO_DECEL=11000
G1 X121.13 Y152.688 F33600
SET_VELOCITY_LIMIT ACCEL=2000 ACCEL_TO_DECEL=2000
G1 F7600
G1 X152.688 Y121.13 E1.37135
SET_VELOCITY_LIMIT ACCEL=11000 ACCEL_TO_DECEL=11000
G1 X152.153 Y121.13 F33600
SET_VELOCITY_LIMIT ACCEL=2000 ACCEL_TO_DECEL=2000
G1 F7600
G1 X121.13 Y152.153 E1.34813
SET_VELOCITY_LIMIT ACCEL=11000 ACCEL_TO_DECEL=11000
G1 X121.13 Y151.619 F33600
M73 P61 R3
SET_VELOCITY_LIMIT ACCEL=2000 ACCEL_TO_DECEL=2000
G1 F7600
G1 X151.619 Y121.13 E1.32491
SET_VELOCITY_LIMIT ACCEL=11000 ACCEL_TO_DECEL=11000
G1 X151.085 Y121.13 F33600
SET_VELOCITY_LIMIT ACCEL=2000 ACCEL_TO_DECEL=2000
G1 F7600
G1 X121.13 Y151.085 E1.3017
SET_VELOCITY_LIMIT ACCEL=11000 ACCEL_TO_DECEL=11000
G1 X121.13 Y150.55 F33600
SET_VELOCITY_LIMIT ACCEL=2000 ACCEL_TO_DECEL=2000
G1 F7600
G1 X150.55 Y121.13 E1.27848
SET_VELOCITY_LIMIT ACCEL=11000 ACCEL_TO_DECEL=11000
G1 X150.016 Y121.13 F33600
SET_VELOCITY_LIMIT ACCEL=2000 ACCEL_TO_DECEL=2000
G1 F7600
G1 X121.13 Y150.016 E1.25526
SET_VELOCITY_LIMIT ACCEL=11000 ACCEL_TO_DECEL=11000
G1 X121.13 Y149.482 F33600
SET_VELOCITY_LIMIT ACCEL=2000 ACCEL_TO_DECEL=2000
G1 F7600
G1 X149.482 Y121.13 E1.23204
SET_VELOCITY_LIMIT ACCEL=11000 ACCEL_TO_DECEL=11000
G1 X148.947 Y121.13 F33600
SET_VELOCITY_LIMIT ACCEL=2000 ACCEL_TO_DECEL=2000
G1 F7600
G1 X121.13 Y148.947 E1.20882
SET_VELOCITY_LIMIT ACCEL=11000 ACCEL_TO_DECEL=11000
G1 X121.13 Y148.413 F33600
SET_VELOCITY_LIMIT ACCEL=2000 ACCEL_TO_DECEL=2000
G1 F7600
G1 X148.413 Y121.13 E1.1856
SET_VELOCITY_LIMIT ACCEL=11000 ACCEL_TO_DECEL=11000
G1 X147.879 Y121.13 F33600
SET_VELOCITY_LIMIT ACCEL=2000 ACCEL_TO_DECEL=2000
G1 F7600
G1 X121.13 Y147.879 E1.16238
SET_VELOCITY_LIMIT ACCEL=11000 ACCEL_TO_DECEL=11000
G1 X121.13 Y147.344 F33600
SET_VELOCITY_LIMIT ACCEL=2000 ACCEL_TO_DECEL=2000
G1 F7600
G1 X147.344 Y121.13 E1.13916
SET_VELOCITY_LIMIT ACCEL=11000 ACCEL_TO_DECEL=11000
G1 X146.81 Y121.13 F33600
SET_VELOCITY_LIMIT ACCEL=2000 ACCEL_TO_DECEL=2000
G1 F7600
G1 X121.13 Y146.81 E1.11594
SET_VELOCITY_LIMIT ACCEL=11000 ACCEL_TO_DECEL=11000
G1 X121.13 Y146.276 F33600
SET_VELOCITY_LIMIT ACCEL=2000 ACCEL_TO_DECEL=2000
G1 F7600
G1 X146.276 Y121.13 E1.09272
SET_VELOCITY_LIMIT ACCEL=11000 ACCEL_TO_DECEL=11000
G1 X145.741 Y121.13 F33600
SET_VELOCITY_LIMIT ACCEL=2000 ACCEL_TO_DECEL=2000
G1 F7600
G1 X121.13 Y145.741 E1.0695
SET_VELOCITY_LIMIT ACCEL=11000 ACCEL_TO_DECEL=11000
G1 X121.13 Y145.207 F33600
SET_VELOCITY_LIMIT ACCEL=2000 ACCEL_TO_DECEL=2000
G1 F7600
G1 X145.207 Y121.13 E1.04628
SET_VELOCITY_LIMIT ACCEL=11000 ACCEL_TO_DECEL=11000
G1 X144.673 Y121.13 F33600
SET_VELOCITY_LIMIT ACCEL=2000 ACCEL_TO_DECEL=2000
G1 F7600
G1 X121.13 Y144.673 E1.02306
SET_VELOCITY_LIMIT ACCEL=11000 ACCEL_TO_DECEL=11000
G1 X121.13 Y144.138 F33600
M73 P62 R3
SET_VELOCITY_LIMIT ACCEL=2000 ACCEL_TO_DECEL=2000
G1 F7600
G1 X144.138 Y121.13 E.99984
SET_VELOCITY_LIMIT ACCEL=11000 ACCEL_TO_DECEL=11000
G1 X143.604 Y121.13 F33600
SET_VELOCITY_LIMIT ACCEL=2000 ACCEL_TO_DECEL=2000
G1 F7600
G1 X121.13 Y143.604 E.97662
SET_VELOCITY_LIMIT ACCEL=11000 ACCEL_TO_DECEL=11000
G1 X121.13 Y143.07 F33600
SET_VELOCITY_LIMIT ACCEL=2000 ACCEL_TO_DECEL=2000
G1 F7600
G1 X143.07 Y121.13 E.9534
SET_VELOCITY_LIMIT ACCEL=11000 ACCEL_TO_DECEL=11000
G1 X142.535 Y121.13 F33600
SET_VELOCITY_LIMIT ACCEL=2000 ACCEL_TO_DECEL=2000
G1 F7600
G1 X121.13 Y142.535 E.93018
SET_VELOCITY_LIMIT ACCEL=11000 ACCEL_TO_DECEL=11000
G1 X121.13 Y142.001 F33600
SET_VELOCITY_LIMIT ACCEL=2000 ACCEL_TO_DECEL=2000
G1 F7600
G1 X142.001 Y121.13 E.90696
SET_VELOCITY_LIMIT ACCEL=11000 ACCEL_TO_DECEL=11000
G1 X141.467 Y121.13 F33600
SET_VELOCITY_LIMIT ACCEL=2000 ACCEL_TO_DECEL=2000
G1 F7600
G1 X121.13 Y141.467 E.88374
SET_VELOCITY_LIMIT ACCEL=11000 ACCEL_TO_DECEL=11000
G1 X121.13 Y140.932 F33600
SET_VELOCITY_LIMIT ACCEL=2000 ACCEL_TO_DECEL=2000
G1 F7600
G1 X140.932 Y121.13 E.86052
SET_VELOCITY_LIMIT ACCEL=11000 ACCEL_TO_DECEL=11000
G1 X140.398 Y121.13 F33600
SET_VELOCITY_LIMIT ACCEL=2000 ACCEL_TO_DECEL=2000
G1 F7600
G1 X121.13 Y140.398 E.8373
SET_VELOCITY_LIMIT ACCEL=11000 ACCEL_TO_DECEL=11000
G1 X121.13 Y139.864 F33600
SET_VELOCITY_LIMIT ACCEL=2000 ACCEL_TO_DECEL=2000
G1 F7600
G1 X139.864 Y121.13 E.81408
SET_VELOCITY_LIMIT ACCEL=11000 ACCEL_TO_DECEL=11000
G1 X139.329 Y121.13 F33600
SET_VELOCITY_LIMIT ACCEL=2000 ACCEL_TO_DECEL=2000
G1 F7600
G1 X121.13 Y139.329 E.79086
SET_VELOCITY_LIMIT ACCEL=11000 ACCEL_TO_DECEL=11000
G1 X121.13 Y138.795 F33600
SET_VELOCITY_LIMIT ACCEL=2000 ACCEL_TO_DECEL=2000
G1 F7600
G1 X138.795 Y121.13 E.76764
SET_VELOCITY_LIMIT ACCEL=11000 ACCEL_TO_DECEL=11000
G1 X138.261 Y121.13 F33600
SET_VELOCITY_LIMIT ACCEL=2000 ACCEL_TO_DECEL=2000
G1 F7600
G1 X121.13 Y138.261 E.74442
SET_VELOCITY_LIMIT ACCEL=11000 ACCEL_TO_DECEL=11000
G1 X121.13 Y137.726 F33600
SET_VELOCITY_LIMIT ACCEL=2000 ACCEL_TO_DECEL=2000
G1 F7600
G1 X137.726 Y121.13 E.7212
SET_VELOCITY_LIMIT ACCEL=11000 ACCEL_TO_DECEL=11000
G1 X137.192 Y121.13 F33600
SET_VELOCITY_LIMIT ACCEL=2000 ACCEL_TO_DECEL=2000
G1 F7600
G1 X121.13 Y137.192 E.69798
SET_VELOCITY_LIMIT ACCEL=11000 ACCEL_TO_DECEL=11000
G1 X121.13 Y136.658 F33600
SET_VELOCITY_LIMIT ACCEL=2000 ACCEL_TO_DECEL=2000
G1 F7600
G1 X136.658 Y121.13 E.67477
SET_VELOCITY_LIMIT ACCEL=11000 ACCEL_TO_DECEL=11000
G1 X136.123 Y121.13 F33600
SET_VELOCITY_LIMIT ACCEL=2000 ACCEL_TO_DECEL=2000
G1 F7600
G1 X121.13 Y136.123 E.65155
SET_VELOCITY_LIMIT ACCEL=11000 ACCEL_TO_DECEL=11000
G1 X121.13 Y135.589 F33600
SET_VELOCITY_LIMIT ACCEL=2000 ACCEL_TO_DECEL=2000
G1 F7600
G1 X135.589 Y121.13 E.62833
SET_VELOCITY_LIMIT ACCEL=11000 ACCEL_TO_DECEL=11000
G1 X135.055 Y121.13 F33600
SET_VELOCITY_LIMIT ACCEL=2000 ACCEL_TO_DECEL=2000
G1 F7600
G1 X121.13 Y135.055 E.60511
SET_VELOCITY_LIMIT ACCEL=11000 ACCEL_TO_DECEL=11000
G1 X121.13 Y134.52 F33600
SET_VELOCITY_LIMIT ACCEL=2000 ACCEL_TO_DECEL=2000
G1 F7600
G1 X134.52 Y121.13 E.58189
SET_VELOCITY_LIMIT ACCEL=11000 ACCEL_TO_DECEL=11000
G1 X133.986 Y121.13 F33600
M73 P63 R2
SET_VELOCITY_LIMIT ACCEL=2000 ACCEL_TO_DECEL=2000
G1 F7600
G1 X121.13 Y133.986 E.55867
SET_VELOCITY_LIMIT ACCEL=11000 ACCEL_TO_DECEL=11000
G1 X121.13 Y133.452 F33600
SET_VELOCITY_LIMIT ACCEL=2000 ACCEL_TO_DECEL=2000
G1 F7600
G1 X133.452 Y121.13 E.53545
SET_VELOCITY_LIMIT ACCEL=11000 ACCEL_TO_DECEL=11000
G1 X132.917 Y121.13 F33600
SET_VELOCITY_LIMIT ACCEL=2000 ACCEL_TO_DECEL=2000
G1 F7600
G1 X121.13 Y132.917 E.51223
SET_VELOCITY_LIMIT ACCEL=11000 ACCEL_TO_DECEL=11000
G1 X121.13 Y132.383 F33600
SET_VELOCITY_LIMIT ACCEL=2000 ACCEL_TO_DECEL=2000
G1 F7600
G1 X132.383 Y121.13 E.48901
SET_VELOCITY_LIMIT ACCEL=11000 ACCEL_TO_DECEL=11000
G1 X131.849 Y121.13 F33600
SET_VELOCITY_LIMIT ACCEL=2000 ACCEL_TO_DECEL=2000
G1 F7600
G1 X121.13 Y131.849 E.46579
SET_VELOCITY_LIMIT ACCEL=11000 ACCEL_TO_DECEL=11000
G1 X121.13 Y131.314 F33600
SET_VELOCITY_LIMIT ACCEL=2000 ACCEL_TO_DECEL=2000
G1 F7600
G1 X131.314 Y121.13 E.44257
SET_VELOCITY_LIMIT ACCEL=11000 ACCEL_TO_DECEL=11000
G1 X130.78 Y121.13 F33600
SET_VELOCITY_LIMIT ACCEL=2000 ACCEL_TO_DECEL=2000
G1 F7600
G1 X121.13 Y130.78 E.41935
SET_VELOCITY_LIMIT ACCEL=11000 ACCEL_TO_DECEL=11000
G1 X121.13 Y130.246 F33600
SET_VELOCITY_LIMIT ACCEL=2000 ACCEL_TO_DECEL=2000
G1 F7600
G1 X130.246 Y121.13 E.39613
SET_VELOCITY_LIMIT ACCEL=11000 ACCEL_TO_DECEL=11000
G1 X129.711 Y121.13 F33600
SET_VELOCITY_LIMIT ACCEL=2000 ACCEL_TO_DECEL=2000
G1 F7600
G1 X121.13 Y129.711 E.37291
SET_VELOCITY_LIMIT ACCEL=11000 ACCEL_TO_DECEL=11000
G1 X121.13 Y129.177 F33600
SET_VELOCITY_LIMIT ACCEL=2000 ACCEL_TO_DECEL=2000
G1 F7600
G1 X129.177 Y121.13 E.34969
SET_VELOCITY_LIMIT ACCEL=11000 ACCEL_TO_DECEL=11000
G1 X128.642 Y121.13 F33600
SET_VELOCITY_LIMIT ACCEL=2000 ACCEL_TO_DECEL=2000
G1 F7600
G1 X121.13 Y128.642 E.32647
SET_VELOCITY_LIMIT ACCEL=11000 ACCEL_TO_DECEL=11000
G1 X121.13 Y128.108 F33600
SET_VELOCITY_LIMIT ACCEL=2000 ACCEL_TO_DECEL=2000
G1 F7600
G1 X128.108 Y121.13 E.30325
SET_VELOCITY_LIMIT ACCEL=11000 ACCEL_TO_DECEL=11000
G1 X127.574 Y121.13 F33600
SET_VELOCITY_LIMIT ACCEL=2000 ACCEL_TO_DECEL=2000
G1 F7600
G1 X121.13 Y127.574 E.28003
SET_VELOCITY_LIMIT ACCEL=11000 ACCEL_TO_DECEL=11000
G1 X121.13 Y127.039 F33600
SET_VELOCITY_LIMIT ACCEL=2000 ACCEL_TO_DECEL=2000
G1 F7600
G1 X127.039 Y121.13 E.25681
SET_VELOCITY_LIMIT ACCEL=11000 ACCEL_TO_DECEL=11000
G1 X126.505 Y121.13 F33600
SET_VELOCITY_LIMIT ACCEL=2000 ACCEL_TO_DECEL=2000
G1 F7600
G1 X121.13 Y126.505 E.23359
SET_VELOCITY_LIMIT ACCEL=11000 ACCEL_TO_DECEL=11000
G1 X121.13 Y125.971 F33600
SET_VELOCITY_LIMIT ACCEL=2000 ACCEL_TO_DECEL=2000
G1 F7600
G1 X125.971 Y121.13 E.21037
SET_VELOCITY_LIMIT ACCEL=11000 ACCEL_TO_DECEL=11000
G1 X125.436 Y121.13 F33600
SET_VELOCITY_LIMIT ACCEL=2000 ACCEL_TO_DECEL=2000
G1 F7600
G1 X121.13 Y125.436 E.18715
SET_VELOCITY_LIMIT ACCEL=11000 ACCEL_TO_DECEL=11000
G1 X121.13 Y124.902 F33600
SET_VELOCITY_LIMIT ACCEL=2000 ACCEL_TO_DECEL=2000
G1 F7600
G1 X124.902 Y121.13 E.16393
SET_VELOCITY_LIMIT ACCEL=11000 ACCEL_TO_DECEL=11000
G1 X124.368 Y121.13 F33600
SET_VELOCITY_LIMIT ACCEL=2000 ACCEL_TO_DECEL=2000
G1 F7600
G1 X121.13 Y124.368 E.14071
SET_VELOCITY_LIMIT ACCEL=11000 ACCEL_TO_DECEL=11000
G1 X121.13 Y123.833 F33600
SET_VELOCITY_LIMIT ACCEL=2000 ACCEL_TO_DECEL=2000
G1 F7600
G1 X123.833 Y121.13 E.11749
SET_VELOCITY_LIMIT ACCEL=11000 ACCEL_TO_DECEL=11000
G1 X123.299 Y121.13 F33600
SET_VELOCITY_LIMIT ACCEL=2000 ACCEL_TO_DECEL=2000
G1 F7600
G1 X121.13 Y123.299 E.09427
SET_VELOCITY_LIMIT ACCEL=11000 ACCEL_TO_DECEL=11000
G1 X121.13 Y122.765 F33600
SET_VELOCITY_LIMIT ACCEL=2000 ACCEL_TO_DECEL=2000
G1 F7600
G1 X122.765 Y121.13 E.07105
SET_VELOCITY_LIMIT ACCEL=11000 ACCEL_TO_DECEL=11000
G1 X122.23 Y121.13 F33600
SET_VELOCITY_LIMIT ACCEL=2000 ACCEL_TO_DECEL=2000
G1 F7600
G1 X121.13 Y122.23 E.04784
SET_VELOCITY_LIMIT ACCEL=11000 ACCEL_TO_DECEL=11000
G1 X121.13 Y121.696 F33600
SET_VELOCITY_LIMIT ACCEL=2000 ACCEL_TO_DECEL=2000
G1 F7600
G1 X121.696 Y121.13 E.02462
SET_VELOCITY_LIMIT ACCEL=11000 ACCEL_TO_DECEL=11000
G1 E-.75408 F2700
;WIPE_START
G1 F23520
G1 X121.413 Y121.412 E-.04592
;WIPE_END
G1 X121.334 Y127.136 Z.7 F33600
G1 X120.61 Y179.3 Z.7
G1 Z.4
G1 E.8 F2700
SET_VELOCITY_LIMIT ACCEL=10000 ACCEL_TO_DECEL=10000 SQUARE_CORNER_VELOCITY=10
;TYPE:Ironing
;WIDTH:0.404721
;HEIGHT:0.022
G1 F6000
M106 S58
G1 X179.3 Y179.3 E.21043
G1 X179.3 Y179.1 E.00072
G1 X120.7 Y179.1 E.21011
G1 X120.7 Y178.9 E.00072
G1 X179.3 Y178.9 E.21011
G1 X179.3 Y178.7 E.00072
M73 P64 R2
G1 X120.7 Y178.7 E.21011
G1 X120.7 Y178.5 E.00072
G1 X179.3 Y178.5 E.21011
G1 X179.3 Y178.3 E.00072
G1 X120.7 Y178.3 E.21011
G1 X120.7 Y178.1 E.00072
G1 X179.3 Y178.1 E.21011
G1 X179.3 Y177.9 E.00072
G1 X120.7 Y177.9 E.21011
G1 X120.7 Y177.7 E.00072
G1 X179.3 Y177.7 E.21011
G1 X179.3 Y177.5 E.00072
G1 X120.7 Y177.5 E.21011
G1 X120.7 Y177.3 E.00072
G1 X179.3 Y177.3 E.21011
G1 X179.3 Y177.1 E.00072
M73 P65 R2
G1 X120.7 Y177.1 E.21011
G1 X120.7 Y176.9 E.00072
G1 X179.3 Y176.9 E.21011
G1 X179.3 Y176.7 E.00072
G1 X120.7 Y176.7 E.21011
G1 X120.7 Y176.5 E.00072
G1 X179.3 Y176.5 E.21011
G1 X179.3 Y176.3 E.00072
G1 X120.7 Y176.3 E.21011
G1 X120.7 Y176.1 E.00072
G1 X179.3 Y176.1 E.21011
G1 X179.3 Y175.9 E.00072
G1 X120.7 Y175.9 E.21011
G1 X120.7 Y175.7 E.00072
G1 X179.3 Y175.7 E.21011
G1 X179.3 Y175.5 E.00072
M73 P66 R2
G1 X120.7 Y175.5 E.21011
G1 X120.7 Y175.3 E.00072
G1 X179.3 Y175.3 E.21011
G1 X179.3 Y175.1 E.00072
G1 X120.7 Y175.1 E.21011
G1 X120.7 Y174.9 E.00072
G1 X179.3 Y174.9 E.21011
G1 X179.3 Y174.7 E.00072
G1 X120.7 Y174.7 E.21011
G1 X120.7 Y174.5 E.00072
G1 X179.3 Y174.5 E.21011
G1 X179.3 Y174.3 E.00072
G1 X120.7 Y174.3 E.21011
G1 X120.7 Y174.1 E.00072
G1 X179.3 Y174.1 E.21011
G1 X179.3 Y173.9 E.00072
M73 P67 R2
G1 X120.7 Y173.9 E.21011
G1 X120.7 Y173.7 E.00072
G1 X179.3 Y173.7 E.21011
G1 X179.3 Y173.5 E.00072
G1 X120.7 Y173.5 E.21011
G1 X120.7 Y173.3 E.00072
G1 X179.3 Y173.3 E.21011
G1 X179.3 Y173.1 E.00072
G1 X120.7 Y173.1 E.21011
G1 X120.7 Y172.9 E.00072
G1 X179.3 Y172.9 E.21011
G1 X179.3 Y172.7 E.00072
G1 X120.7 Y172.7 E.21011
G1 X120.7 Y172.5 E.00072
G1 X179.3 Y172.5 E.21011
G1 X179.3 Y172.3 E.00072
M73 P68 R2
G1 X120.7 Y172.3 E.21011
G1 X120.7 Y172.1 E.00072
G1 X179.3 Y172.1 E.21011
G1 X179.3 Y171.9 E.00072
G1 X120.7 Y171.9 E.21011
G1 X120.7 Y171.7 E.00072
G1 X179.3 Y171.7 E.21011
G1 X179.3 Y171.5 E.00072
G1 X120.7 Y171.5 E.21011
G1 X120.7 Y171.3 E.00072
G1 X179.3 Y171.3 E.21011
G1 X179.3 Y171.1 E.00072
G1 X120.7 Y171.1 E.21011
G1 X120.7 Y170.9 E.00072
G1 X179.3 Y170.9 E.21011
G1 X179.3 Y170.7 E.00072
M73 P69 R2
G1 X120.7 Y170.7 E.21011
G1 X120.7 Y170.5 E.00072
G1 X179.3 Y170.5 E.21011
G1 X179.3 Y170.3 E.00072
G1 X120.7 Y170.3 E.21011
G1 X120.7 Y170.1 E.00072
G1 X179.3 Y170.1 E.21011
G1 X179.3 Y169.9 E.00072
G1 X120.7 Y169.9 E.21011
G1 X120.7 Y169.7 E.00072
G1 X179.3 Y169.7 E.21011
G1 X179.3 Y169.5 E.00072
G1 X120.7 Y169.5 E.21011
G1 X120.7 Y169.3 E.00072
G1 X179.3 Y169.3 E.21011
G1 X179.3 Y169.1 E.00072
M73 P70 R2
G1 X120.7 Y169.1 E.21011
G1 X120.7 Y168.9 E.00072
G1 X179.3 Y168.9 E.21011
G1 X179.3 Y168.7 E.00072
G1 X120.7 Y168.7 E.21011
G1 X120.7 Y168.5 E.00072
G1 X179.3 Y168.5 E.21011
G1 X179.3 Y168.3 E.00072
G1 X120.7 Y168.3 E.21011
G1 X120.7 Y168.1 E.00072
G1 X179.3 Y168.1 E.21011
G1 X179.3 Y167.9 E.00072
G1 X120.7 Y167.9 E.21011
G1 X120.7 Y167.7 E.00072
G1 X179.3 Y167.7 E.21011
G1 X179.3 Y167.5 E.00072
M73 P71 R2
G1 X120.7 Y167.5 E.21011
G1 X120.7 Y167.3 E.00072
G1 X179.3 Y167.3 E.21011
G1 X179.3 Y167.1 E.00072
G1 X120.7 Y167.1 E.21011
G1 X120.7 Y166.9 E.00072
G1 X179.3 Y166.9 E.21011
G1 X179.3 Y166.7 E.00072
G1 X120.7 Y166.7 E.21011
G1 X120.7 Y166.5 E.00072
G1 X179.3 Y166.5 E.21011
G1 X179.3 Y166.3 E.00072
G1 X120.7 Y166.3 E.21011
G1 X120.7 Y166.1 E.00072
G1 X179.3 Y166.1 E.21011
G1 X179.3 Y165.9 E.00072
M73 P72 R2
G1 X120.7 Y165.9 E.21011
G1 X120.7 Y165.7 E.00072
G1 X179.3 Y165.7 E.21011
G1 X179.3 Y165.5 E.00072
G1 X120.7 Y165.5 E.21011
G1 X120.7 Y165.3 E.00072
G1 X179.3 Y165.3 E.21011
G1 X179.3 Y165.1 E.00072
G1 X120.7 Y165.1 E.21011
G1 X120.7 Y164.9 E.00072
G1 X179.3 Y164.9 E.21011
G1 X179.3 Y164.7 E.00072
G1 X120.7 Y164.7 E.21011
G1 X120.7 Y164.5 E.00072
G1 X179.3 Y164.5 E.21011
G1 X179.3 Y164.3 E.00072
G1 X120.7 Y164.3 E.21011
G1 X120.7 Y164.1 E.00072
M73 P73 R2
G1 X179.3 Y164.1 E.21011
G1 X179.3 Y163.9 E.00072
G1 X120.7 Y163.9 E.21011
G1 X120.7 Y163.7 E.00072
G1 X179.3 Y163.7 E.21011
G1 X179.3 Y163.5 E.00072
G1 X120.7 Y163.5 E.21011
G1 X120.7 Y163.3 E.00072
G1 X179.3 Y163.3 E.21011
G1 X179.3 Y163.1 E.00072
G1 X120.7 Y163.1 E.21011
G1 X120.7 Y162.9 E.00072
G1 X179.3 Y162.9 E.21011
G1 X179.3 Y162.7 E.00072
G1 X120.7 Y162.7 E.21011
G1 X120.7 Y162.5 E.00072
M73 P74 R2
G1 X179.3 Y162.5 E.21011
G1 X179.3 Y162.3 E.00072
G1 X120.7 Y162.3 E.21011
G1 X120.7 Y162.1 E.00072
G1 X179.3 Y162.1 E.21011
G1 X179.3 Y161.9 E.00072
G1 X120.7 Y161.9 E.21011
G1 X120.7 Y161.7 E.00072
G1 X179.3 Y161.7 E.21011
G1 X179.3 Y161.5 E.00072
G1 X120.7 Y161.5 E.21011
G1 X120.7 Y161.3 E.00072
G1 X179.3 Y161.3 E.21011
G1 X179.3 Y161.1 E.00072
G1 X120.7 Y161.1 E.21011
G1 X120.7 Y160.9 E.00072
M73 P75 R2
G1 X179.3 Y160.9 E.21011
G1 X179.3 Y160.7 E.00072
G1 X120.7 Y160.7 E.21011
G1 X120.7 Y160.5 E.00072
G1 X179.3 Y160.5 E.21011
G1 X179.3 Y160.3 E.00072
M73 P75 R1
G1 X120.7 Y160.3 E.21011
G1 X120.7 Y160.1 E.00072
G1 X179.3 Y160.1 E.21011
G1 X179.3 Y159.9 E.00072
G1 X120.7 Y159.9 E.21011
G1 X120.7 Y159.7 E.00072
G1 X179.3 Y159.7 E.21011
G1 X179.3 Y159.5 E.00072
G1 X120.7 Y159.5 E.21011
G1 X120.7 Y159.3 E.00072
M73 P76 R1
G1 X179.3 Y159.3 E.21011
G1 X179.3 Y159.1 E.00072
G1 X120.7 Y159.1 E.21011
G1 X120.7 Y158.9 E.00072
G1 X179.3 Y158.9 E.21011
G1 X179.3 Y158.7 E.00072
G1 X120.7 Y158.7 E.21011
G1 X120.7 Y158.5 E.00072
G1 X179.3 Y158.5 E.21011
G1 X179.3 Y158.3 E.00072
G1 X120.7 Y158.3 E.21011
G1 X120.7 Y158.1 E.00072
G1 X179.3 Y158.1 E.21011
G1 X179.3 Y157.9 E.00072
G1 X120.7 Y157.9 E.21011
G1 X120.7 Y157.7 E.00072
M73 P77 R1
G1 X179.3 Y157.7 E.21011
G1 X179.3 Y157.5 E.00072
G1 X120.7 Y157.5 E.21011
G1 X120.7 Y157.3 E.00072
G1 X179.3 Y157.3 E.21011
G1 X179.3 Y157.1 E.00072
G1 X120.7 Y157.1 E.21011
G1 X120.7 Y156.9 E.00072
G1 X179.3 Y156.9 E.21011
G1 X179.3 Y156.7 E.00072
G1 X120.7 Y156.7 E.21011
G1 X120.7 Y156.5 E.00072
G1 X179.3 Y156.5 E.21011
G1 X179.3 Y156.3 E.00072
G1 X120.7 Y156.3 E.21011
G1 X120.7 Y156.1 E.00072
M73 P78 R1
G1 X179.3 Y156.1 E.21011
G1 X179.3 Y155.9 E.00072
G1 X120.7 Y155.9 E.21011
G1 X120.7 Y155.7 E.00072
G1 X179.3 Y155.7 E.21011
G1 X179.3 Y155.5 E.00072
G1 X120.7 Y155.5 E.21011
G1 X120.7 Y155.3 E.00072
G1 X179.3 Y155.3 E.21011
G1 X179.3 Y155.1 E.00072
G1 X120.7 Y155.1 E.21011
G1 X120.7 Y154.9 E.00072
G1 X179.3 Y154.9 E.21011
G1 X179.3 Y154.7 E.00072
G1 X120.7 Y154.7 E.21011
G1 X120.7 Y154.5 E.00072
M73 P79 R1
G1 X179.3 Y154.5 E.21011
G1 X179.3 Y154.3 E.00072
G1 X120.7 Y154.3 E.21011
G1 X120.7 Y154.1 E.00072
G1 X179.3 Y154.1 E.21011
G1 X179.3 Y153.9 E.00072
G1 X120.7 Y153.9 E.21011
G1 X120.7 Y153.7 E.00072
G1 X179.3 Y153.7 E.21011
G1 X179.3 Y153.5 E.00072
G1 X120.7 Y153.5 E.21011
G1 X120.7 Y153.3 E.00072
G1 X179.3 Y153.3 E.21011
G1 X179.3 Y153.1 E.00072
G1 X120.7 Y153.1 E.21011
G1 X120.7 Y152.9 E.00072
M73 P80 R1
G1 X179.3 Y152.9 E.21011
G1 X179.3 Y152.7 E.00072
G1 X120.7 Y152.7 E.21011
G1 X120.7 Y152.5 E.00072
G1 X179.3 Y152.5 E.21011
G1 X179.3 Y152.3 E.00072
G1 X120.7 Y152.3 E.21011
G1 X120.7 Y152.1 E.00072
G1 X179.3 Y152.1 E.21011
G1 X179.3 Y151.9 E.00072
G1 X120.7 Y151.9 E.21011
G1 X120.7 Y151.7 E.00072
G1 X179.3 Y151.7 E.21011
G1 X179.3 Y151.5 E.00072
G1 X120.7 Y151.5 E.21011
G1 X120.7 Y151.3 E.00072
M73 P81 R1
G1 X179.3 Y151.3 E.21011
G1 X179.3 Y151.1 E.00072
G1 X120.7 Y151.1 E.21011
G1 X120.7 Y150.9 E.00072
G1 X179.3 Y150.9 E.21011
G1 X179.3 Y150.7 E.00072
G1 X120.7 Y150.7 E.21011
G1 X120.7 Y150.5 E.00072
G1 X179.3 Y150.5 E.21011
G1 X179.3 Y150.3 E.00072
G1 X120.7 Y150.3 E.21011
G1 X120.7 Y150.1 E.00072
G1 X179.3 Y150.1 E.21011
G1 X179.3 Y149.9 E.00072
G1 X120.7 Y149.9 E.21011
G1 X120.7 Y149.7 E.00072
M73 P82 R1
G1 X179.3 Y149.7 E.21011
G1 X179.3 Y149.5 E.00072
G1 X120.7 Y149.5 E.21011
G1 X120.7 Y149.3 E.00072
G1 X179.3 Y149.3 E.21011
G1 X179.3 Y149.1 E.00072
G1 X120.7 Y149.1 E.21011
G1 X120.7 Y148.9 E.00072
G1 X179.3 Y148.9 E.21011
G1 X179.3 Y148.7 E.00072
G1 X120.7 Y148.7 E.21011
G1 X120.7 Y148.5 E.00072
G1 X179.3 Y148.5 E.21011
G1 X179.3 Y148.3 E.00072
G1 X120.7 Y148.3 E.21011
G1 X120.7 Y148.1 E.00072
M73 P83 R1
G1 X179.3 Y148.1 E.21011
G1 X179.3 Y147.9 E.00072
G1 X120.7 Y147.9 E.21011
G1 X120.7 Y147.7 E.00072
G1 X179.3 Y147.7 E.21011
G1 X179.3 Y147.5 E.00072
G1 X120.7 Y147.5 E.21011
G1 X120.7 Y147.3 E.00072
G1 X179.3 Y147.3 E.21011
G1 X179.3 Y147.1 E.00072
G1 X120.7 Y147.1 E.21011
G1 X120.7 Y146.9 E.00072
G1 X179.3 Y146.9 E.21011
G1 X179.3 Y146.7 E.00072
G1 X120.7 Y146.7 E.21011
G1 X120.7 Y146.5 E.00072
M73 P84 R1
G1 X179.3 Y146.5 E.21011
G1 X179.3 Y146.3 E.00072
G1 X120.7 Y146.3 E.21011
G1 X120.7 Y146.1 E.00072
G1 X179.3 Y146.1 E.21011
G1 X179.3 Y145.9 E.00072
G1 X120.7 Y145.9 E.21011
G1 X120.7 Y145.7 E.00072
G1 X179.3 Y145.7 E.21011
G1 X179.3 Y145.5 E.00072
G1 X120.7 Y145.5 E.21011
G1 X120.7 Y145.3 E.00072
G1 X179.3 Y145.3 E.21011
G1 X179.3 Y145.1 E.00072
G1 X120.7 Y145.1 E.21011
G1 X120.7 Y144.9 E.00072
M73 P85 R1
G1 X179.3 Y144.9 E.21011
G1 X179.3 Y144.7 E.00072
G1 X120.7 Y144.7 E.21011
G1 X120.7 Y144.5 E.00072
G1 X179.3 Y144.5 E.21011
G1 X179.3 Y144.3 E.00072
G1 X120.7 Y144.3 E.21011
G1 X120.7 Y144.1 E.00072
G1 X179.3 Y144.1 E.21011
G1 X179.3 Y143.9 E.00072
G1 X120.7 Y143.9 E.21011
G1 X120.7 Y143.7 E.00072
G1 X179.3 Y143.7 E.21011
G1 X179.3 Y143.5 E.00072
G1 X120.7 Y143.5 E.21011
G1 X120.7 Y143.3 E.00072
G1 X179.3 Y143.3 E.21011
G1 X179.3 Y143.1 E.00072
M73 P86 R1
G1 X120.7 Y143.1 E.21011
G1 X120.7 Y142.9 E.00072
G1 X179.3 Y142.9 E.21011
G1 X179.3 Y142.7 E.00072
G1 X120.7 Y142.7 E.21011
G1 X120.7 Y142.5 E.00072
G1 X179.3 Y142.5 E.21011
G1 X179.3 Y142.3 E.00072
G1 X120.7 Y142.3 E.21011
G1 X120.7 Y142.1 E.00072
G1 X179.3 Y142.1 E.21011
G1 X179.3 Y141.9 E.00072
G1 X120.7 Y141.9 E.21011
G1 X120.7 Y141.7 E.00072
G1 X179.3 Y141.7 E.21011
G1 X179.3 Y141.5 E.00072
M73 P87 R1
G1 X120.7 Y141.5 E.21011
G1 X120.7 Y141.3 E.00072
G1 X179.3 Y141.3 E.21011
G1 X179.3 Y141.1 E.00072
G1 X120.7 Y141.1 E.21011
G1 X120.7 Y140.9 E.00072
G1 X179.3 Y140.9 E.21011
G1 X179.3 Y140.7 E.00072
G1 X120.7 Y140.7 E.21011
G1 X120.7 Y140.5 E.00072
G1 X179.3 Y140.5 E.21011
G1 X179.3 Y140.3 E.00072
M73 P87 R0
G1 X120.7 Y140.3 E.21011
G1 X120.7 Y140.1 E.00072
G1 X179.3 Y140.1 E.21011
G1 X179.3 Y139.9 E.00072
M73 P88 R0
G1 X120.7 Y139.9 E.21011
G1 X120.7 Y139.7 E.00072
G1 X179.3 Y139.7 E.21011
G1 X179.3 Y139.5 E.00072
G1 X120.7 Y139.5 E.21011
G1 X120.7 Y139.3 E.00072
G1 X179.3 Y139.3 E.21011
G1 X179.3 Y139.1 E.00072
G1 X120.7 Y139.1 E.21011
G1 X120.7 Y138.9 E.00072
G1 X179.3 Y138.9 E.21011
G1 X179.3 Y138.7 E.00072
G1 X120.7 Y138.7 E.21011
G1 X120.7 Y138.5 E.00072
G1 X179.3 Y138.5 E.21011
G1 X179.3 Y138.3 E.00072
M73 P89 R0
G1 X120.7 Y138.3 E.21011
G1 X120.7 Y138.1 E.00072
G1 X179.3 Y138.1 E.21011
G1 X179.3 Y137.9 E.00072
G1 X120.7 Y137.9 E.21011
G1 X120.7 Y137.7 E.00072
G1 X179.3 Y137.7 E.21011
G1 X179.3 Y137.5 E.00072
G1 X120.7 Y137.5 E.21011
G1 X120.7 Y137.3 E.00072
G1 X179.3 Y137.3 E.21011
G1 X179.3 Y137.1 E.00072
G1 X120.7 Y137.1 E.21011
G1 X120.7 Y136.9 E.00072
G1 X179.3 Y136.9 E.21011
G1 X179.3 Y136.7 E.00072
M73 P90 R0
G1 X120.7 Y136.7 E.21011
G1 X120.7 Y136.5 E.00072
G1 X179.3 Y136.5 E.21011
G1 X179.3 Y136.3 E.00072
G1 X120.7 Y136.3 E.21011
G1 X120.7 Y136.1 E.00072
G1 X179.3 Y136.1 E.21011
G1 X179.3 Y135.9 E.00072
G1 X120.7 Y135.9 E.21011
G1 X120.7 Y135.7 E.00072
G1 X179.3 Y135.7 E.21011
G1 X179.3 Y135.5 E.00072
G1 X120.7 Y135.5 E.21011
G1 X120.7 Y135.3 E.00072
G1 X179.3 Y135.3 E.21011
G1 X179.3 Y135.1 E.00072
M73 P91 R0
G1 X120.7 Y135.1 E.21011
G1 X120.7 Y134.9 E.00072
G1 X179.3 Y134.9 E.21011
G1 X179.3 Y134.7 E.00072
G1 X120.7 Y134.7 E.21011
G1 X120.7 Y134.5 E.00072
G1 X179.3 Y134.5 E.21011
G1 X179.3 Y134.3 E.00072
G1 X120.7 Y134.3 E.21011
G1 X120.7 Y134.1 E.00072
G1 X179.3 Y134.1 E.21011
G1 X179.3 Y133.9 E.00072
G1 X120.7 Y133.9 E.21011
G1 X120.7 Y133.7 E.00072
G1 X179.3 Y133.7 E.21011
G1 X179.3 Y133.5 E.00072
M73 P92 R0
G1 X120.7 Y133.5 E.21011
G1 X120.7 Y133.3 E.00072
G1 X179.3 Y133.3 E.21011
G1 X179.3 Y133.1 E.00072
G1 X120.7 Y133.1 E.21011
G1 X120.7 Y132.9 E.00072
G1 X179.3 Y132.9 E.21011
G1 X179.3 Y132.7 E.00072
G1 X120.7 Y132.7 E.21011
G1 X120.7 Y132.5 E.00072
G1 X179.3 Y132.5 E.21011
G1 X179.3 Y132.3 E.00072
G1 X120.7 Y132.3 E.21011
G1 X120.7 Y132.1 E.00072
G1 X179.3 Y132.1 E.21011
G1 X179.3 Y131.9 E.00072
M73 P93 R0
G1 X120.7 Y131.9 E.21011
G1 X120.7 Y131.7 E.00072
G1 X179.3 Y131.7 E.21011
G1 X179.3 Y131.5 E.00072
G1 X120.7 Y131.5 E.21011
G1 X120.7 Y131.3 E.00072
G1 X179.3 Y131.3 E.21011
G1 X179.3 Y131.1 E.00072
G1 X120.7 Y131.1 E.21011
G1 X120.7 Y130.9 E.00072
G1 X179.3 Y130.9 E.21011
G1 X179.3 Y130.7 E.00072
G1 X120.7 Y130.7 E.21011
G1 X120.7 Y130.5 E.00072
G1 X179.3 Y130.5 E.21011
G1 X179.3 Y130.3 E.00072
M73 P94 R0
G1 X120.7 Y130.3 E.21011
G1 X120.7 Y130.1 E.00072
G1 X179.3 Y130.1 E.21011
G1 X179.3 Y129.9 E.00072
G1 X120.7 Y129.9 E.21011
G1 X120.7 Y129.7 E.00072
G1 X179.3 Y129.7 E.21011
G1 X179.3 Y129.5 E.00072
G1 X120.7 Y129.5 E.21011
G1 X120.7 Y129.3 E.00072
G1 X179.3 Y129.3 E.21011
G1 X179.3 Y129.1 E.00072
G1 X120.7 Y129.1 E.21011
G1 X120.7 Y128.9 E.00072
G1 X179.3 Y128.9 E.21011
G1 X179.3 Y128.7 E.00072
M73 P95 R0
G1 X120.7 Y128.7 E.21011
G1 X120.7 Y128.5 E.00072
G1 X179.3 Y128.5 E.21011
G1 X179.3 Y128.3 E.00072
G1 X120.7 Y128.3 E.21011
G1 X120.7 Y128.1 E.00072
G1 X179.3 Y128.1 E.21011
G1 X179.3 Y127.9 E.00072
G1 X120.7 Y127.9 E.21011
G1 X120.7 Y127.7 E.00072
G1 X179.3 Y127.7 E.21011
G1 X179.3 Y127.5 E.00072
G1 X120.7 Y127.5 E.21011
G1 X120.7 Y127.3 E.00072
G1 X179.3 Y127.3 E.21011
G1 X179.3 Y127.1 E.00072
M73 P96 R0
G1 X120.7 Y127.1 E.21011
G1 X120.7 Y126.9 E.00072
G1 X179.3 Y126.9 E.21011
G1 X179.3 Y126.7 E.00072
G1 X120.7 Y126.7 E.21011
G1 X120.7 Y126.5 E.00072
G1 X179.3 Y126.5 E.21011
G1 X179.3 Y126.3 E.00072
G1 X120.7 Y126.3 E.21011
G1 X120.7 Y126.1 E.00072
G1 X179.3 Y126.1 E.21011
G1 X179.3 Y125.9 E.00072
G1 X120.7 Y125.9 E.21011
G1 X120.7 Y125.7 E.00072
G1 X179.3 Y125.7 E.21011
G1 X179.3 Y125.5 E.00072
M73 P97 R0
G1 X120.7 Y125.5 E.21011
G1 X120.7 Y125.3 E.00072
G1 X179.3 Y125.3 E.21011
G1 X179.3 Y125.1 E.00072
G1 X120.7 Y125.1 E.21011
G1 X120.7 Y124.9 E.00072
G1 X179.3 Y124.9 E.21011
G1 X179.3 Y124.7 E.00072
G1 X120.7 Y124.7 E.21011
G1 X120.7 Y124.5 E.00072
G1 X179.3 Y124.5 E.21011
G1 X179.3 Y124.3 E.00072
G1 X120.7 Y124.3 E.21011
G1 X120.7 Y124.1 E.00072
G1 X179.3 Y124.1 E.21011
G1 X179.3 Y123.9 E.00072
M73 P98 R0
G1 X120.7 Y123.9 E.21011
G1 X120.7 Y123.7 E.00072
G1 X179.3 Y123.7 E.21011
G1 X179.3 Y123.5 E.00072
G1 X120.7 Y123.5 E.21011
G1 X120.7 Y123.3 E.00072
G1 X179.3 Y123.3 E.21011
G1 X179.3 Y123.1 E.00072
G1 X120.7 Y123.1 E.21011
G1 X120.7 Y122.9 E.00072
G1 X179.3 Y122.9 E.21011
G1 X179.3 Y122.7 E.00072
G1 X120.7 Y122.7 E.21011
G1 X120.7 Y122.5 E.00072
G1 X179.3 Y122.5 E.21011
G1 X179.3 Y122.3 E.00072
M73 P99 R0
G1 X120.7 Y122.3 E.21011
G1 X120.7 Y122.1 E.00072
G1 X179.3 Y122.1 E.21011
G1 X179.3 Y121.9 E.00072
G1 X120.7 Y121.9 E.21011
G1 X120.7 Y121.7 E.00072
G1 X179.3 Y121.7 E.21011
G1 X179.3 Y121.5 E.00072
G1 X120.7 Y121.5 E.21011
G1 X120.7 Y121.3 E.00072
G1 X179.3 Y121.3 E.21011
G1 X179.3 Y121.1 E.00072
G1 X120.7 Y121.1 E.21011
G1 X120.7 Y120.9 E.00072
G1 X179.39 Y120.9 E.21043
; stop printing object Cube id:0 copy 0
G1 E-.75408 F2700
;WIPE_START
G1 F23520
G1 X178.99 Y120.9 E-.04592
;WIPE_END
EXCLUDE_OBJECT_END NAME=Cube_id_0_copy_0
M106 S0
M106 P2 S0
;TYPE:Custom
; filament end gcode
KCTRL_CYCLE_END_V1
M73 P100 R0
; EXECUTABLE_BLOCK_END

; filament used [mm] = 651.41, 0.00
; filament used [cm3] = 1.57, 0.00
; filament used [g] = 1.96, 0.00
; filament cost = 0.02, 0.00
; total filament used [g] = 1.96
; total filament cost = 0.02
; total layers count = 2
; estimated printing time (normal mode) = 8m 5s
; estimated first layer printing time (normal mode) = 2m 5s

; CONFIG_BLOCK_START
; accel_to_decel_enable = 1
; accel_to_decel_factor = 100%
; activate_air_filtration = 0,0
; activate_air_filtration_during_print = 1,1
; activate_air_filtration_on_completion = 1,1
; activate_chamber_temp_control = 0,0
; adaptive_bed_mesh_margin = 0
; adaptive_pressure_advance = 0,0
; adaptive_pressure_advance_bridges = 0,0
; adaptive_pressure_advance_model = "0,0,0\n0,0,0";"0,0,0\n0,0,0"
; adaptive_pressure_advance_overhangs = 0,0
; additional_cooling_fan_speed = 75,75
; additional_fan_full_speed_layer = 0,0
; align_infill_direction_to_model = 0
; alternate_extra_wall = 0
; auxiliary_fan = 1
; bbl_calib_mark_logo = 1
; bbl_use_printhost = 0
; bed_custom_model =
; bed_custom_texture =
; bed_exclude_area = 0x0
; bed_mesh_max = 99999,99999
; bed_mesh_min = -99999,-99999
; bed_mesh_probe_distance = 50,50
; bed_temperature_formula = by_highest_temp
; before_layer_change_gcode = ;BEFORE_LAYER_CHANGE\n;[layer_z]\nG92 E0\n
; best_object_pos = 0.5,0.5
; bottom_shell_layers = 3
; bottom_shell_thickness = 0
; bottom_solid_infill_flow_ratio = 1
; bottom_surface_density = 100%
; bottom_surface_filament_id = 0
; bottom_surface_pattern = monotonic
; bridge_acceleration = 45%
; bridge_angle = 0
; bridge_density = 100%
; bridge_flow = 0.97
; bridge_line_width = 100%
; bridge_no_support = 0
; bridge_speed = 65
; brim_ears_detection_length = 1
; brim_ears_max_angle = 125
; brim_flow_ratio = 1
; brim_object_gap = 0.1
; brim_type = no_brim
; brim_use_efc_outline = 0
; brim_width = 5
; calib_flowrate_topinfill_special_order = 0
; chamber_minimal_temperature = 0,0
; chamber_temperature = 0,0
; change_extrusion_role_gcode =
; change_filament_gcode =
; close_additional_fan_first_x_layers = 1,1
; close_fan_the_first_x_layers = 1,1
; combine_brims = 0
; complete_print_exhaust_fan_speed = 65,65
; cool_plate_temp = 35,35
; cool_plate_temp_initial_layer = 35,35
; cooling_tube_length = 0
; cooling_tube_retraction = 0
; counterbore_hole_bridging = none
; curr_bed_type = High Temp Plate
; default_acceleration = 10000
; default_bed_type =
; default_filament_colour = #000000;#8080FF
; default_filament_profile = "Creality HF Generic PLA"
; default_jerk = 8.5
; default_junction_deviation = 0
; default_nozzle_volume_type = Standard
; default_print_profile = 0.20mm Standard @Creality K1Max (0.4 nozzle)
; deretraction_speed = 45
; detect_narrow_internal_solid_infill = 1
; detect_overhang_wall = 1
; detect_thin_wall = 0
; different_settings_to_system = bridge_acceleration;bridge_flow;bridge_speed;brim_type;default_jerk;enable_arc_fitting;enable_extra_bridge_layer;extra_perimeters_on_overhangs;extrusion_rate_smoothing_external_perimeter_only;filename_format;first_layer_flow_ratio;infill_jerk;infill_wall_overlap;initial_layer_acceleration;initial_layer_infill_speed;initial_layer_jerk;initial_layer_speed;initial_layer_travel_acceleration;inner_wall_acceleration;inner_wall_jerk;inner_wall_speed;internal_bridge_flow;internal_bridge_speed;internal_solid_infill_acceleration;internal_solid_infill_speed;ironing_angle;ironing_flow;ironing_inset;ironing_spacing;ironing_speed;ironing_type;max_bridge_length;max_travel_detour_distance;max_volumetric_extrusion_rate_slope;min_feature_size;notes;only_one_wall_top;outer_wall_acceleration;outer_wall_jerk;outer_wall_speed;overhang_2_4_speed;overhang_3_4_speed;overhang_4_4_speed;overhang_flow_ratio;overhang_reverse;post_process;prime_tower_width;prime_volume;raft_first_layer_density;reduce_crossing_wall;resolution;role_based_wipe_speed;scarf_joint_speed;seam_gap;set_other_flow_ratios;slow_down_layers;small_perimeter_threshold;sparse_infill_acceleration;sparse_infill_pattern;support_bottom_interface_spacing;support_critical_regions_only;support_interface_spacing;support_interface_speed;support_interface_top_layers;support_ironing_flow;support_ironing_spacing;support_object_first_layer_gap;support_remove_small_overhang;support_speed;support_top_z_distance;support_type;thick_bridges;top_bottom_infill_wall_overlap;top_shell_layers;top_shell_thickness;top_surface_density;travel_acceleration;travel_speed;tree_support_branch_diameter_organic;tree_support_branch_distance_organic;tree_support_tip_diameter;tree_support_top_rate;wall_loops;wipe_speed;wipe_tower_max_purge_speed;additional_cooling_fan_speed;complete_print_exhaust_fan_speed;default_filament_colour;during_print_exhaust_fan_speed;enable_pressure_advance;fan_cooling_layer_time;fan_min_speed;filament_cost;filament_max_volumetric_speed;filament_retraction_length;filament_start_gcode;filament_vendor;full_fan_speed_layer;ironing_fan_speed;nozzle_temperature;nozzle_temperature_initial_layer;nozzle_temperature_range_high;overhang_fan_threshold;pressure_advance;slow_down_layer_time;slow_down_min_speed;additional_cooling_fan_speed;complete_print_exhaust_fan_speed;default_filament_colour;during_print_exhaust_fan_speed;enable_pressure_advance;fan_cooling_layer_time;fan_min_speed;filament_cost;filament_max_volumetric_speed;filament_start_gcode;full_fan_speed_layer;ironing_fan_speed;nozzle_temperature_range_high;overhang_fan_threshold;pressure_advance;slow_down_layer_time;slow_down_min_speed;change_filament_gcode;deretraction_speed;machine_load_filament_time;machine_start_gcode;machine_unload_filament_time;max_layer_height;retract_before_wipe;retract_when_changing_layer;retraction_minimum_travel;retraction_speed;time_cost;wipe_distance;z_hop
; disable_m73 = 0
; dont_filter_internal_bridges = disabled
; dont_slow_down_outer_wall = 0,0
; draft_shield = disabled
; during_print_exhaust_fan_speed = 65,65
; elefant_foot_compensation = 0.15
; elefant_foot_compensation_layers = 1
; elefant_foot_layers_density = 100%
; emit_machine_limits_to_gcode = 1
; enable_arc_fitting = 0
; enable_extra_bridge_layer = apply_to_all
; enable_filament_ramming = 0
; enable_long_retraction_when_cut = 0
; enable_overhang_bridge_fan = 1,1
; enable_overhang_speed = 1
; enable_power_loss_recovery = printer_configuration
; enable_pressure_advance = 1,1
; enable_prime_tower = 0
; enable_support = 0
; enable_tower_interface_cooldown_during_tower = 0
; enable_tower_interface_features = 0
; enable_wrapping_detection = 0
; enforce_support_layers = 0
; eng_plate_temp = 0,0
; eng_plate_temp_initial_layer = 0,0
; ensure_vertical_shell_thickness = ensure_all
; exclude_object = 1
; extra_loading_move = 0
; extra_perimeters_on_overhangs = 1
; extra_solid_infills =
; extruder_ams_count = 1#0|4#0;1#0|4#0
; extruder_clearance_height_to_lid = 101
; extruder_clearance_height_to_rod = 45
; extruder_clearance_radius = 65
; extruder_colour = #000000;#8080FF
; extruder_offset = 0x0
; extruder_printable_area =
; extruder_printable_height = 0
; extruder_type = Direct Drive
; extruder_variant_list = "Direct Drive Standard"
; extrusion_rate_smoothing_external_perimeter_only = 1
; fan_cooling_layer_time = 55,55
; fan_kickstart = 0
; fan_max_speed = 100,100
; fan_min_speed = 55,55
; fan_speedup_overhangs = 1
; fan_speedup_time = 0
; filament_adaptive_volumetric_speed = 0,0
; filament_adhesiveness_category = 0,0
; filament_change_extrusion_role_gcode = ;
; filament_change_length = 10,10
; filament_colour = #000000;#8080FF
; filament_colour_type = ;
; filament_cooling_before_tower = 10,10
; filament_cooling_final_speed = 3.4,3.4
; filament_cooling_initial_speed = 2.2,2.2
; filament_cooling_moves = 4,4
; filament_cost = 9,16
; filament_density = 1.25,1.25
; filament_diameter = 1.75,1.75
; filament_end_gcode = "; filament end gcode\n";"; filament end gcode\n"
; filament_extruder_variant = "Direct Drive Standard";"Direct Drive Standard"
; filament_flow_ratio = 0.98,0.98
; filament_flush_temp = 0,0
; filament_flush_volumetric_speed = 0,0
; filament_ids = OGFL03;OGFL03
; filament_is_support = 0,0
; filament_loading_speed = 28,28
; filament_loading_speed_start = 3,3
; filament_map = 1,1
; filament_map_mode = Auto For Flush
; filament_max_volumetric_speed = 23,24
; filament_minimal_purge_on_wipe_tower = 15,15
; filament_multi_colour = #000000;#8080FF
; filament_multitool_ramming = 0,0
; filament_multitool_ramming_flow = 10,10
; filament_multitool_ramming_volume = 10,10
; filament_notes = ;
; filament_printable = 3,3
; filament_ramming_parameters = "120 100 6.6 6.8 7.2 7.6 7.9 8.2 8.7 9.4 9.9 10.0| 0.05 6.6 0.45 6.8 0.95 7.8 1.45 8.3 1.95 9.7 2.45 10 2.95 7.6 3.45 7.6 3.95 7.6 4.45 7.6 4.95 7.6";"120 100 6.6 6.8 7.2 7.6 7.9 8.2 8.7 9.4 9.9 10.0| 0.05 6.6 0.45 6.8 0.95 7.8 1.45 8.3 1.95 9.7 2.45 10 2.95 7.6 3.45 7.6 3.95 7.6 4.45 7.6 4.95 7.6"
; filament_retraction_length = 0.8,nil
; filament_self_index = 1,2
; filament_settings_id = "PLA Geeetech";"eSUN PLA+ @System - Copie"
; filament_shrink = 100%,100%
; filament_shrinkage_compensation_z = 100%,100%
; filament_soluble = 0,0
; filament_stamping_distance = 0,0
; filament_stamping_loading_speed = 0,0
; filament_start_gcode =
; filament_toolchange_delay = 0,0
; filament_tower_interface_pre_extrusion_dist = 10,10
; filament_tower_interface_pre_extrusion_length = 0,0
; filament_tower_interface_print_temp = -1,-1
; filament_tower_interface_purge_volume = 20,20
; filament_tower_ironing_area = 4,4
; filament_type = PLA;PLA
; filament_unloading_speed = 90,90
; filament_unloading_speed_start = 100,100
; filament_vendor = Geeetech;eSUN
; file_start_gcode =
; filename_format = {plate_name}_{input_filename_base}_{filament_type[initial_tool]}_{print_time}.gcode
; fill_multiline = 1
; filter_out_gap_fill = 0
; first_layer_flow_ratio = 1.012
; first_layer_print_sequence = 0
; first_x_layer_fan_speed = 0,0
; flashforge_serial_number =
; flush_into_infill = 0
; flush_into_objects = 0
; flush_into_support = 1
; flush_multiplier = 1
; flush_volumes_matrix = 0,640,305,0
; flush_volumes_vector = 140,140,140,140
; full_fan_speed_layer = 3,3
; fuzzy_skin = none
; fuzzy_skin_first_layer = 0
; fuzzy_skin_layers_between_ripple_offset = 1
; fuzzy_skin_mode = displacement
; fuzzy_skin_noise_type = classic
; fuzzy_skin_octaves = 4
; fuzzy_skin_persistence = 0.5
; fuzzy_skin_point_distance = 0.8
; fuzzy_skin_ripple_offset = 50%
; fuzzy_skin_ripples_per_layer = 15
; fuzzy_skin_scale = 1
; fuzzy_skin_thickness = 0.3
; gap_fill_flow_ratio = 1
; gap_fill_target = everywhere
; gap_infill_speed = 250
; gcode_add_line_number = 0
; gcode_comments = 0
; gcode_flavor = klipper
; gcode_label_objects = 1
; grab_length = 0
; gyroid_optimized = 0
; has_scarf_joint_seam = 0
; head_wrap_detect_zone =
; high_current_on_filament_swap = 0
; hole_to_polyhole = 0
; hole_to_polyhole_threshold = 0.01
; hole_to_polyhole_twisted = 1
; host_type = octoprint
; hot_plate_temp = 55,55
; hot_plate_temp_initial_layer = 55,55
; idle_temperature = 0,0
; independent_support_layer_height = 1
; infill_anchor = 400%
; infill_anchor_max = 20
; infill_combination = 0
; infill_combination_max_layer_height = 100%
; infill_direction = 45
; infill_jerk = 10
; infill_lock_depth = 1
; infill_overhang_angle = 60
; infill_shift_step = 0.4
; infill_wall_overlap = 15%
; inherits_group = "0.20mm Standard @Creality K1Max (0.4 nozzle)";"eSUN PLA+ @System";"eSUN PLA+ @System";"Creality K1 Max (0.4 nozzle)"
; initial_layer_acceleration = 5000
; initial_layer_infill_speed = 90
; initial_layer_jerk = 5
; initial_layer_line_width = 0.5
; initial_layer_min_bead_width = 85%
; initial_layer_print_height = 0.2
; initial_layer_speed = 65
; initial_layer_travel_acceleration = 95%
; initial_layer_travel_jerk = 100%
; initial_layer_travel_speed = 100%
; inner_wall_acceleration = 6000
; inner_wall_filament_id = 0
; inner_wall_flow_ratio = 1
; inner_wall_jerk = 8
; inner_wall_line_width = 0.45
; inner_wall_speed = 250
; input_shaping_damp_x = 0.1
; input_shaping_damp_y = 0.1
; input_shaping_emit = 0
; input_shaping_freq_x = 0
; input_shaping_freq_y = 0
; input_shaping_type = Default
; interface_shells = 0
; interlocking_beam = 0
; interlocking_beam_layer_count = 2
; interlocking_beam_width = 0.8
; interlocking_boundary_avoidance = 2
; interlocking_depth = 2
; interlocking_orientation = 22.5
; internal_bridge_angle = 0
; internal_bridge_density = 100%
; internal_bridge_fan_speed = -1,-1
; internal_bridge_flow = 1.005
; internal_bridge_speed = 120
; internal_solid_filament_id = 0
; internal_solid_infill_acceleration = 95%
; internal_solid_infill_flow_ratio = 1
; internal_solid_infill_line_width = 0.42
; internal_solid_infill_pattern = monotonic
; internal_solid_infill_speed = 270
; ironing_angle = 45
; ironing_angle_fixed = 0
; ironing_expansion = 0
; ironing_fan_speed = 23,23
; ironing_flow = 22%
; ironing_inset = 0.6
; ironing_pattern = rectilinear
; ironing_spacing = 0.2
; ironing_speed = 120
; ironing_type = top
; is_infill_first = 0
; lateral_lattice_angle_1 = -45
; lateral_lattice_angle_2 = 45
; layer_change_gcode = ;AFTER_LAYER_CHANGE\n;[layer_z]
; layer_height = 0.2
; lightning_overhang_angle = 45
; lightning_prune_angle = 45
; lightning_straightening_angle = 45
; line_width = 0.42
; long_retractions_when_cut = 0
; long_retractions_when_ec = 0,0
; machine_end_gcode = END_PRINT
; machine_load_filament_time = 125
; machine_max_acceleration_e = 5000,5000
; machine_max_acceleration_extruding = 20000,20000
; machine_max_acceleration_retracting = 5000,5000
; machine_max_acceleration_travel = 20000,20000
; machine_max_acceleration_x = 20000,20000
; machine_max_acceleration_y = 20000,20000
; machine_max_acceleration_z = 300,300
; machine_max_jerk_e = 10,10
; machine_max_jerk_x = 20,20
; machine_max_jerk_y = 20,20
; machine_max_jerk_z = 5,5
; machine_max_junction_deviation = 0.01
; machine_max_speed_e = 100,100
; machine_max_speed_x = 800,800
; machine_max_speed_y = 800,800
; machine_max_speed_z = 20,20
; machine_min_extruding_rate = 0,0
; machine_min_travel_rate = 0,0
; machine_pause_gcode = PAUSE
; machine_start_gcode = KCTRL_JOB_BEGIN_KEEP_CORRECT_V1 BED=55 PROBE_NOZZLE=140 FIRST_NOZZLE=190 PLATE=1 PROBE_REV=1 NOZZLE_ID=1 CONFIG_ID=1 X_COUNT=11 Y_COUNT=11
; machine_tool_change_time = 0
; machine_unload_filament_time = 30
; make_overhang_printable = 0
; make_overhang_printable_angle = 55
; make_overhang_printable_hole_size = 0
; manual_filament_change = 1
; master_extruder_id = 1
; max_bridge_length = 15
; max_layer_height = 0.32
; max_resonance_avoidance_speed = 120
; max_travel_detour_distance = 20%
; max_volumetric_extrusion_rate_slope = 350
; max_volumetric_extrusion_rate_slope_segment_length = 3
; min_bead_width = 85%
; min_feature_size = 35%
; min_layer_height = 0.08
; min_length_factor = 0.5
; min_resonance_avoidance_speed = 70
; min_skirt_length = 0
; min_width_top_surface = 300%
; minimum_sparse_infill_area = 15
; mmu_segmented_region_interlocking_depth = 0
; mmu_segmented_region_max_width = 0
; notes = z-lift 0.002;\nz-offset 0.098; ?\nz-offset 0.042; ?\noffset PETG 0.54????\noffset PLA 0.25>0.35
; nozzle_diameter = 0.4
; nozzle_flush_dataset = 0
; nozzle_height = 2.5
; nozzle_hrc = 0
; nozzle_temperature = 195,220
; nozzle_temperature_initial_layer = 190,220
; nozzle_temperature_range_high = 230,230
; nozzle_temperature_range_low = 190,190
; nozzle_type = brass
; nozzle_volume = 200
; nozzle_volume_type = Standard
; only_one_wall_first_layer = 0
; only_one_wall_top = 0
; ooze_prevention = 0
; other_layers_print_sequence = 0
; other_layers_print_sequence_nums = 0
; outer_wall_acceleration = 1500
; outer_wall_filament_id = 0
; outer_wall_flow_ratio = 1
; outer_wall_jerk = 3
; outer_wall_line_width = 0.42
; outer_wall_speed = 165
; overhang_1_4_speed = 0
; overhang_2_4_speed = 135
; overhang_3_4_speed = 90
; overhang_4_4_speed = 75
; overhang_fan_speed = 100,100
; overhang_fan_threshold = 25%,25%
; overhang_flow_ratio = 1.015
; overhang_reverse = 1
; overhang_reverse_internal_only = 0
; overhang_reverse_threshold = 50%
; parallel_printheads_bed_exclude_areas =
; parallel_printheads_count = 1
; parking_pos_retraction = 0
; part_cooling_fan_min_pwm = 0
; pellet_flow_coefficient = 0.4157,0.4157
; pellet_modded_printer = 0
; physical_extruder_map = 0
; post_process =
; precise_outer_wall = 0
; precise_z_height = 0
; preferred_orientation = 0
; preheat_steps = 1
; preheat_time = 30
; pressure_advance = 0.03,0.001
; prime_tower_brim_width = 3
; prime_tower_enable_framework = 0
; prime_tower_flat_ironing = 0
; prime_tower_infill_gap = 150%
; prime_tower_skip_points = 1
; prime_tower_width = 30
; prime_volume = 25
; print_compatible_printers = "Creality K1 Max (0.4 nozzle)"
; print_extruder_id = 1
; print_extruder_variant = "Direct Drive Standard"
; print_flow_ratio = 1
; print_order = default
; print_sequence = by layer
; print_settings_id = 0.20mm - SpeedClassics - MultiMaterials
; printable_area = 0x0,300x0,300x300,0x300
; printable_height = 300
; printer_agent =
; printer_extruder_id = 1
; printer_extruder_variant = "Direct Drive Standard"
; printer_model = Creality K1 Max
; printer_notes =
; printer_settings_id = Creality K1 Max (0.4 nozzle) - Copie
; printer_structure = undefine
; printer_technology = FFF
; printer_variant = 0.4
; printhost_authorization_type = key
; printhost_ssl_ignore_revoke = 0
; printing_by_object_gcode =
; process_change_extrusion_role_gcode =
; purge_in_prime_tower = 0
; raft_contact_distance = 0.1
; raft_expansion = 1.5
; raft_first_layer_density = 70%
; raft_first_layer_expansion = 2
; raft_layers = 0
; reduce_crossing_wall = 1
; reduce_fan_stop_start_freq = 1,1
; reduce_infill_retraction = 1
; relative_bridge_angle = 0
; required_nozzle_HRC = 3,3
; resolution = 0.005
; resonance_avoidance = 0
; retract_before_wipe = 10%
; retract_length_toolchange = 0
; retract_lift_above = 0
; retract_lift_below = 299
; retract_lift_enforce = All Surfaces
; retract_restart_extra = 0
; retract_restart_extra_toolchange = 0
; retract_when_changing_layer = 0
; retraction_distances_when_cut = 18
; retraction_distances_when_ec = 10,10
; retraction_length = 0.8
; retraction_minimum_travel = 1.5
; retraction_speed = 45
; role_based_wipe_speed = 0
; scan_first_layer = 0
; scarf_angle_threshold = 155
; scarf_joint_flow_ratio = 1
; scarf_joint_speed = 80%
; scarf_overhang_threshold = 40%
; seam_gap = 35%
; seam_position = aligned
; seam_slope_conditional = 0
; seam_slope_entire_loop = 0
; seam_slope_inner_walls = 0
; seam_slope_min_length = 20
; seam_slope_start_height = 0
; seam_slope_steps = 10
; seam_slope_type = none
; set_other_flow_ratios = 1
; silent_mode = 0
; single_extruder_multi_material = 1
; single_extruder_multi_material_priming = 0
; single_loop_draft_shield = 0
; skeleton_infill_density = 25%
; skeleton_infill_line_width = 100%
; skin_infill_density = 25%
; skin_infill_depth = 2
; skin_infill_line_width = 100%
; skirt_distance = 2
; skirt_height = 1
; skirt_loops = 0
; skirt_speed = 50
; skirt_start_angle = -135
; skirt_type = combined
; slice_closing_radius = 0.049
; slicing_mode = regular
; slow_down_for_layer_cooling = 1,1
; slow_down_layer_time = 7,7
; slow_down_layers = 3
; slow_down_min_speed = 28,28
; slowdown_for_curled_perimeters = 0
; small_area_infill_flow_compensation = 0
; small_area_infill_flow_compensation_model = 0,0;"\n0.2,0.4444";"\n0.4,0.6145";"\n0.6,0.7059";"\n0.8,0.7619";"\n1.5,0.8571";"\n2,0.8889";"\n3,0.9231";"\n5,0.9520";"\n10,1"
; small_perimeter_speed = 50%
; small_perimeter_threshold = 3
; solid_infill_direction = 45
; solid_infill_rotate_template =
; sparse_infill_acceleration = 95%
; sparse_infill_density = 15%
; sparse_infill_filament_id = 0
; sparse_infill_flow_ratio = 1
; sparse_infill_line_width = 0.45
; sparse_infill_pattern = gyroid
; sparse_infill_rotate_template =
; sparse_infill_speed = 270
; spiral_finishing_flow_ratio = 0
; spiral_mode = 0
; spiral_mode_max_xy_smoothing = 200%
; spiral_mode_smooth = 0
; spiral_starting_flow_ratio = 0
; staggered_inner_seams = 1
; standby_temperature_delta = -5
; start_end_points = 30x-3,54x245
; supertack_plate_temp = 45,45
; supertack_plate_temp_initial_layer = 45,45
; support_air_filtration = 1
; support_angle = 0
; support_base_pattern = rectilinear
; support_base_pattern_spacing = 2.5
; support_bottom_interface_spacing = 0.25
; support_bottom_z_distance = 0.2
; support_chamber_temp_control = 0
; support_critical_regions_only = 1
; support_expansion = 0
; support_filament = 0
; support_flow_ratio = 1
; support_interface_bottom_layers = 2
; support_interface_filament = 0
; support_interface_flow_ratio = 1
; support_interface_loop_pattern = 0
; support_interface_not_for_body = 1
; support_interface_pattern = auto
; support_interface_spacing = 0.4
; support_interface_speed = 160
; support_interface_top_layers = 1
; support_ironing = 0
; support_ironing_flow = 20%
; support_ironing_pattern = rectilinear
; support_ironing_spacing = 0.19
; support_line_width = 0.42
; support_material_interface_fan_speed = -1,-1
; support_multi_bed_types = 1
; support_object_first_layer_gap = 2
; support_object_skip_flush = 0
; support_object_xy_distance = 0.35
; support_on_build_plate_only = 0
; support_parallel_printheads = 0
; support_remove_small_overhang = 0
; support_speed = 160
; support_style = default
; support_threshold_angle = 30
; support_threshold_overlap = 50%
; support_top_z_distance = 0.3
; support_type = tree(auto)
; symmetric_infill_y_axis = 0
; temperature_vitrification = 45,45
; template_custom_gcode =
; textured_cool_plate_temp = 40,40
; textured_cool_plate_temp_initial_layer = 40,40
; textured_plate_temp = 55,55
; textured_plate_temp_initial_layer = 55,55
; thick_bridges = 1
; thick_internal_bridges = 1
; thumbnails = 96x96/PNG, 300x300/PNG
; thumbnails_format = PNG
; time_cost = 0.25
; time_lapse_gcode =
; timelapse_type = 0
; tool_change_on_wipe_tower = 0
; top_bottom_infill_wall_overlap = 26%
; top_shell_layers = 3
; top_shell_thickness = 0
; top_solid_infill_flow_ratio = 1
; top_surface_acceleration = 2000
; top_surface_density = 99.8%
; top_surface_filament_id = 0
; top_surface_jerk = 20
; top_surface_line_width = 0.42
; top_surface_pattern = monotonicline
; top_surface_speed = 200
; travel_acceleration = 11000
; travel_jerk = 20
; travel_slope = 3
; travel_speed = 560
; travel_speed_z = 0
; tree_support_angle_slow = 25
; tree_support_auto_brim = 1
; tree_support_branch_angle = 45
; tree_support_branch_angle_organic = 40
; tree_support_branch_diameter = 2
; tree_support_branch_diameter_angle = 5
; tree_support_branch_diameter_organic = 3
; tree_support_branch_distance = 5
; tree_support_branch_distance_organic = 2.2
; tree_support_brim_width = 3
; tree_support_tip_diameter = 1.2
; tree_support_top_rate = 20%
; tree_support_wall_count = 0
; upward_compatible_machine =
; use_3mf = 0
; use_firmware_retraction = 0
; use_relative_e_distances = 1
; volumetric_speed_coefficients = ;
; wall_direction = ccw
; wall_distribution_count = 1
; wall_generator = classic
; wall_loops = 3
; wall_maximum_deviation = 0.025
; wall_maximum_resolution = 0.5
; wall_sequence = inner wall/outer wall
; wall_transition_angle = 10
; wall_transition_filter_deviation = 25%
; wall_transition_length = 100%
; wipe = 1
; wipe_before_external_loop = 0
; wipe_distance = 0.4
; wipe_on_loops = 0
; wipe_speed = 70%
; wipe_tower_bridging = 10
; wipe_tower_cone_angle = 0
; wipe_tower_extra_flow = 100%
; wipe_tower_extra_rib_length = 0
; wipe_tower_extra_spacing = 100%
; wipe_tower_filament = 0
; wipe_tower_fillet_wall = 1
; wipe_tower_max_purge_speed = 200
; wipe_tower_no_sparse_layers = 0
; wipe_tower_rib_width = 8
; wipe_tower_rotation_angle = 0
; wipe_tower_type = type2
; wipe_tower_wall_type = rib
; wipe_tower_x = 165.000
; wipe_tower_x = 165
; wipe_tower_y = 250.000
; wipe_tower_y = 250
; wiping_volumes_extruders = 70,70,70,70,70,70,70,70,70,70
; wrapping_detection_gcode =
; wrapping_detection_layers = 20
; wrapping_exclude_area =
; xy_contour_compensation = 0
; xy_hole_compensation = 0
; z_hop = 0.3
; z_hop_types = Auto Lift
; z_offset = 0
; zaa_dont_alternate_fill_direction = 0
; zaa_enabled = 0
; zaa_min_z = 0.05
; zaa_minimize_perimeter_height = 35
; first_layer_bed_temperature = 55
; bed_shape = 0x0,300x0,300x300,0x300
; first_layer_temperature = 190
; first_layer_height = 0.200
; CONFIG_BLOCK_END
